{"type": "FeatureCollection", "features": [{"type": "Feature", "properties": {"class": "land"}, "geometry": {"type": "MultiPolygon", "coordinates": [[[[179.0707011534851, -8.597245959413879], [179.0707011534851, -8.5975215056919], [179.0709780070498, -8.5975215056919], [179.0709780070498, -8.597797051766948], [179.07125486061452, -8.597797051766948], [179.07125486061452, -8.598072597639018], [179.0709780070498, -8.598072597639018], [179.0709780070498, -8.5983481433081], [179.07014744635572, -8.5983481433081], [179.07014744635572, -8.598623688774184], [179.069870592791, -8.598623688774184], [179.069870592791, -8.5983481433081], [179.06959373922632, -8.5983481433081], [179.06959373922632, -8.598072597639018], [179.06931688566164, -8.598072597639018], [179.06931688566164, -8.597245959413879], [179.06959373922632, -8.597245959413879], [179.06959373922632, -8.596970412932887], [179.07014744635572, -8.596970412932887], [179.07014744635572, -8.597245959413879], [179.0707011534851, -8.597245959413879]]], [[[179.16566192617634, -8.545164075657748], [179.16566192617634, -8.54571524451019], [179.16593877974103, -8.54571524451019], [179.16593877974103, -8.545990828633727], [179.16538507261166, -8.545990828633727], [179.16538507261166, -8.546266412555472], [179.16483136548226, -8.546266412555472], [179.16483136548226, -8.545990828633727], [179.1642776583529, -8.545990828633727], [179.1642776583529, -8.54571524451019], [179.16455451191754, -8.54571524451019], [179.16455451191754, -8.545439660184863], [179.16483136548226, -8.545439660184863], [179.16483136548226, -8.545164075657748], [179.16510821904697, -8.545164075657748], [179.16510821904697, -8.544888490928857], [179.16538507261166, -8.544888490928857], [179.16538507261166, -8.545164075657748], [179.16566192617634, -8.545164075657748]]], [[[179.19085560056382, -8.530282211719925], [179.19085560056382, -8.5308334023466], [179.19113245412854, -8.5308334023466], [179.19113245412854, -8.531108997357766], [179.19085560056382, -8.531108997357766], [179.19085560056382, -8.531935781182508], [179.19030189343445, -8.531935781182508], [179.19030189343445, -8.532211375387815], [179.18974818630502, -8.532211375387815], [179.18974818630502, -8.53248696939164], [179.18947133274034, -8.53248696939164], [179.18947133274034, -8.532762563193977], [179.18919447917565, -8.532762563193977], [179.18919447917565, -8.533038156794824], [179.18891762561094, -8.533038156794824], [179.18891762561094, -8.53331375019417], [179.18864077204623, -8.53331375019417], [179.18864077204623, -8.533589343392006], [179.18836391848154, -8.533589343392006], [179.18836391848154, -8.533864936388333], [179.18781021135214, -8.533864936388333], [179.18781021135214, -8.53414052918314], [179.18697965065806, -8.53414052918314], [179.18697965065806, -8.534416121776426], [179.18670279709335, -8.534416121776426], [179.18670279709335, -8.53496730635839], [179.18642594352866, -8.53496730635839], [179.18642594352866, -8.535518490134184], [179.18587223639926, -8.535518490134184], [179.18587223639926, -8.535794081719743], [179.18559538283458, -8.535794081719743], [179.18559538283458, -8.536069673103745], [179.18531852926986, -8.536069673103745], [179.18531852926986, -8.536345264286178], [179.18504167570518, -8.536345264286178], [179.18504167570518, -8.536620855267033], [179.18448796857578, -8.536620855267033], [179.18448796857578, -8.536896446046308], [179.18421111501107, -8.536896446046308], [179.18421111501107, -8.537172036623993], [179.18393426144638, -8.537172036623993], [179.18393426144638, -8.537447627000088], [179.1836574078817, -8.537447627000088], [179.1836574078817, -8.537723217174578], [179.183380554317, -8.537723217174578], [179.183380554317, -8.537998807147462], [179.1831037007523, -8.537998807147462], [179.1831037007523, -8.538274396918732], [179.1825499936229, -8.538274396918732], [179.1825499936229, -8.538549986488384], [179.1822731400582, -8.538549986488384], [179.1822731400582, -8.538825575856407], [179.18171943292882, -8.538825575856407], [179.18171943292882, -8.539101165022805], [179.18116572579942, -8.539101165022805], [179.18116572579942, -8.539376753987558], [179.18061201867002, -8.539376753987558], [179.18061201867002, -8.539652342750667], [179.17978145797593, -8.539652342750667], [179.17978145797593, -8.539927931312128], [179.17756662945834, -8.539927931312128], [179.17756662945834, -8.540203519671929], [179.17673606876426, -8.540203519671929], [179.17673606876426, -8.540479107830068], [179.17452124024666, -8.540479107830068], [179.17452124024666, -8.540754695786536], [179.1739675331173, -8.540754695786536], [179.1739675331173, -8.541030283541325], [179.1723064117291, -8.541030283541325], [179.1723064117291, -8.540754695786536], [179.1728601188585, -8.540754695786536], [179.1728601188585, -8.540203519671929], [179.17313697242318, -8.540203519671929], [179.17313697242318, -8.539927931312128], [179.17369067955258, -8.539927931312128], [179.17369067955258, -8.539652342750667], [179.17479809381138, -8.539652342750667], [179.17479809381138, -8.539376753987558], [179.17507494737606, -8.539376753987558], [179.17507494737606, -8.539101165022805], [179.17562865450546, -8.539101165022805], [179.17562865450546, -8.538825575856407], [179.17701292232894, -8.538825575856407], [179.17701292232894, -8.538549986488384], [179.17922775084654, -8.538549986488384], [179.17922775084654, -8.538274396918732], [179.18005831154062, -8.538274396918732], [179.18005831154062, -8.537998807147462], [179.1808888722347, -8.537998807147462], [179.1808888722347, -8.537723217174578], [179.1814425793641, -8.537723217174578], [179.1814425793641, -8.537447627000088], [179.18171943292882, -8.537447627000088], [179.18171943292882, -8.537172036623993], [179.1819962864935, -8.537172036623993], [179.1819962864935, -8.536896446046308], [179.1825499936229, -8.536896446046308], [179.1825499936229, -8.536620855267033], [179.18282684718758, -8.536620855267033], [179.18282684718758, -8.536345264286178], [179.1836574078817, -8.536345264286178], [179.1836574078817, -8.536069673103745], [179.18421111501107, -8.536069673103745], [179.18421111501107, -8.535794081719743], [179.18448796857578, -8.535794081719743], [179.18448796857578, -8.535518490134184], [179.18504167570518, -8.535518490134184], [179.18504167570518, -8.53496730635839], [179.18531852926986, -8.53496730635839], [179.18531852926986, -8.534691714168176], [179.18559538283458, -8.534691714168176], [179.18559538283458, -8.534416121776426], [179.18587223639926, -8.534416121776426], [179.18587223639926, -8.53414052918314], [179.18614908996395, -8.53414052918314], [179.18614908996395, -8.533864936388333], [179.18642594352866, -8.533864936388333], [179.18642594352866, -8.53331375019417], [179.18670279709335, -8.53331375019417], [179.18670279709335, -8.533038156794824], [179.18725650422277, -8.533038156794824], [179.18725650422277, -8.532762563193977], [179.18753335778746, -8.532762563193977], [179.18753335778746, -8.53248696939164], [179.18781021135214, -8.53248696939164], [179.18781021135214, -8.532211375387815], [179.18808706491686, -8.532211375387815], [179.18808706491686, -8.531935781182508], [179.18836391848154, -8.531935781182508], [179.18836391848154, -8.531660186775724], [179.18864077204623, -8.531660186775724], [179.18864077204623, -8.531384592167477], [179.18919447917565, -8.531384592167477], [179.18919447917565, -8.531108997357766], [179.18947133274034, -8.531108997357766], [179.18947133274034, -8.5308334023466], [179.18974818630502, -8.5308334023466], [179.18974818630502, -8.530557807133981], [179.19002503986974, -8.530557807133981], [179.19002503986974, -8.530282211719925], [179.19030189343445, -8.530282211719925], [179.19030189343445, -8.53000661610443], [179.1905787469991, -8.53000661610443], [179.1905787469991, -8.530282211719925], [179.19085560056382, -8.530282211719925]]], [[[179.03775557928608, -8.511265642025501], [179.03775557928608, -8.511816860421279], [179.036925018592, -8.511816860421279], [179.036925018592, -8.512092469317652], [179.03609445789792, -8.512092469317652], [179.03609445789792, -8.511541251323894], [179.03637131146263, -8.511541251323894], [179.03637131146263, -8.51099003252611], [179.03664816502732, -8.51099003252611], [179.03664816502732, -8.510714422825716], [179.036925018592, -8.510714422825716], [179.036925018592, -8.510438812924336], [179.03720187215671, -8.510438812924336], [179.03720187215671, -8.510163202821975], [179.0380324328508, -8.510163202821975], [179.0380324328508, -8.511265642025501], [179.03775557928608, -8.511265642025501]]], [[[179.06101127872068, -8.490318747678845], [179.06101127872068, -8.49059437223537], [179.0601807180266, -8.49059437223537], [179.0601807180266, -8.490318747678845], [179.06045757159131, -8.490318747678845], [179.06045757159131, -8.4900431229218], [179.060734425156, -8.4900431229218], [179.060734425156, -8.490318747678845], [179.06101127872068, -8.490318747678845]]], [[[179.17922775084654, -8.447594521024616], [179.17922775084654, -8.44787017658671], [179.17950460441122, -8.44787017658671], [179.17950460441122, -8.44814583194925], [179.17978145797593, -8.44814583194925], [179.17978145797593, -8.448421487112237], [179.18005831154062, -8.448421487112237], [179.18005831154062, -8.448972796839515], [179.1803351651053, -8.448972796839515], [179.1803351651053, -8.449524105768495], [179.18061201867002, -8.449524105768495], [179.18061201867002, -8.45035106766504], [179.1808888722347, -8.45035106766504], [179.1808888722347, -8.450626721231346], [179.18116572579942, -8.450626721231346], [179.18116572579942, -8.451729333500396], [179.1814425793641, -8.451729333500396], [179.1814425793641, -8.452280638437117], [179.18171943292882, -8.452280638437117], [179.18171943292882, -8.453107594344797], [179.1819962864935, -8.453107594344797], [179.1819962864935, -8.453383245914694], [179.1822731400582, -8.453383245914694], [179.1822731400582, -8.453658897284908], [179.1825499936229, -8.453658897284908], [179.1825499936229, -8.45393454845545], [179.18282684718758, -8.45393454845545], [179.18282684718758, -8.45448585019745], [179.1831037007523, -8.45448585019745], [179.1831037007523, -8.455312801312681], [179.183380554317, -8.455312801312681], [179.183380554317, -8.45558845128499], [179.1836574078817, -8.45558845128499], [179.1836574078817, -8.456415400003538], [179.18393426144638, -8.456415400003538], [179.18393426144638, -8.456966698150515], [179.18421111501107, -8.456966698150515], [179.18421111501107, -8.457793643872781], [179.18448796857578, -8.457793643872781], [179.18448796857578, -8.458069292047327], [179.18476482214047, -8.458069292047327], [179.18476482214047, -8.458620587797054], [179.18504167570518, -8.458620587797054], [179.18504167570518, -8.459447529923166], [179.18531852926986, -8.459447529923166], [179.18531852926986, -8.459998823674837], [179.18559538283458, -8.459998823674837], [179.18559538283458, -8.461101408780207], [179.18587223639926, -8.461101408780207], [179.18587223639926, -8.461652700133797], [179.18614908996395, -8.461652700133797], [179.18614908996395, -8.462479635665176], [179.18642594352866, -8.462479635665176], [179.18642594352866, -8.46303092502002], [179.18670279709335, -8.46303092502002], [179.18670279709335, -8.463582213575274], [179.18697965065806, -8.463582213575274], [179.18697965065806, -8.464409144908814], [179.18725650422277, -8.464409144908814], [179.18725650422277, -8.465236074442997], [179.18753335778746, -8.465236074442997], [179.18753335778746, -8.46606300217765], [179.18781021135214, -8.46606300217765], [179.18781021135214, -8.466889928112609], [179.18808706491686, -8.466889928112609], [179.18808706491686, -8.46744121106933], [179.18836391848154, -8.46744121106933], [179.18836391848154, -8.467716852247696], [179.18864077204623, -8.467716852247696], [179.18864077204623, -8.468268134004411], [179.18891762561094, -8.468268134004411], [179.18891762561094, -8.468819414961054], [179.18919447917565, -8.468819414961054], [179.18919447917565, -8.47019761385204], [179.18947133274034, -8.47019761385204], [179.18947133274034, -8.470473253030079], [179.18974818630502, -8.470473253030079], [179.18974818630502, -8.471024530785945], [179.19002503986974, -8.471024530785945], [179.19002503986974, -8.471300169363763], [179.19030189343445, -8.471300169363763], [179.19030189343445, -8.471575807741493], [179.1905787469991, -8.471575807741493], [179.1905787469991, -8.47212708389667], [179.19085560056382, -8.47212708389667], [179.19085560056382, -8.472678359251425], [179.19113245412854, -8.472678359251425], [179.19113245412854, -8.472953996628629], [179.19140930769322, -8.472953996628629], [179.19140930769322, -8.473229633805705], [179.1916861612579, -8.473229633805705], [179.1916861612579, -8.473780907559469], [179.19196301482262, -8.473780907559469], [179.19196301482262, -8.474607816689018], [179.19223986838733, -8.474607816689018], [179.19223986838733, -8.47515908844125], [179.192516721952, -8.47515908844125], [179.192516721952, -8.476537264318663], [179.1927935755167, -8.476537264318663], [179.1927935755167, -8.477639801416919], [179.19307042908142, -8.477639801416919], [179.19307042908142, -8.4798448660019], [179.1933472826461, -8.4798448660019], [179.1933472826461, -8.489767497964243], [179.1936241362108, -8.489767497964243], [179.1936241362108, -8.491145620746822], [179.1939009897755, -8.491145620746822], [179.1939009897755, -8.492523738515883], [179.1941778433402, -8.492523738515883], [179.1941778433402, -8.493350606770502], [179.19445469690487, -8.493350606770502], [179.19445469690487, -8.494728716516288], [179.19473155046958, -8.494728716516288], [179.19473155046958, -8.496933681676827], [179.1950084040343, -8.496933681676827], [179.1950084040343, -8.49720930141893], [179.19528525759898, -8.49720930141893], [179.19528525759898, -8.497760540301092], [179.19556211116367, -8.497760540301092], [179.19556211116367, -8.498863015657056], [179.19583896472838, -8.498863015657056], [179.19583896472838, -8.499965487801541], [179.1961158182931, -8.499965487801541], [179.1961158182931, -8.50106795673414], [179.19639267185778, -8.50106795673414], [179.19639267185778, -8.501894806325547], [179.19666952542246, -8.501894806325547], [179.19666952542246, -8.502170422454451], [179.19694637898718, -8.502170422454451], [179.19694637898718, -8.503272884962072], [179.19722323255186, -8.503272884962072], [179.19722323255186, -8.504099729734211], [179.19750008611655, -8.504099729734211], [179.19750008611655, -8.50465095857813], [179.19777693968126, -8.50465095857813], [179.19777693968126, -8.505202186618648], [179.19805379324598, -8.505202186618648], [179.19805379324598, -8.505753413855716], [179.19833064681066, -8.505753413855716], [179.19833064681066, -8.506304640289281], [179.19860750037535, -8.506304640289281], [179.19860750037535, -8.506855865919297], [179.19888435394006, -8.506855865919297], [179.19888435394006, -8.508233926478463], [179.19916120750474, -8.508233926478463], [179.19916120750474, -8.508785149295653], [179.19943806106943, -8.508785149295653], [179.19943806106943, -8.50906076040283], [179.19971491463414, -8.50906076040283], [179.19971491463414, -8.510163202821975], [179.19999176819886, -8.510163202821975], [179.19999176819886, -8.510714422825716], [179.20054547532823, -8.510714422825716], [179.20054547532823, -8.511816860421279], [179.20082232889294, -8.511816860421279], [179.20082232889294, -8.512368078013], [179.20109918245763, -8.512368078013], [179.20109918245763, -8.51291929480062], [179.2013760360223, -8.51291929480062], [179.2013760360223, -8.51347051078408], [179.20165288958702, -8.51347051078408], [179.20165288958702, -8.51429733325136], [179.20192974315174, -8.51429733325136], [179.20192974315174, -8.515675366675332], [179.20220659671642, -8.515675366675332], [179.20220659671642, -8.516226578637248], [179.2024834502811, -8.516226578637248], [179.2024834502811, -8.516502184316534], [179.20276030384582, -8.516502184316534], [179.20276030384582, -8.516777789794704], [179.2030371574105, -8.516777789794704], [179.2030371574105, -8.517329000147651], [179.20276030384582, -8.517329000147651], [179.20276030384582, -8.518431418439802], [179.2030371574105, -8.518431418439802], [179.2030371574105, -8.519258230046708], [179.2033140109752, -8.519258230046708], [179.2033140109752, -8.521187450087734], [179.2030371574105, -8.521187450087734], [179.2030371574105, -8.521738654002778], [179.20276030384582, -8.521738654002778], [179.20276030384582, -8.52201425565844], [179.2024834502811, -8.52201425565844], [179.2024834502811, -8.522565458366019], [179.20220659671642, -8.522565458366019], [179.20220659671642, -8.522841059417924], [179.20192974315174, -8.522841059417924], [179.20192974315174, -8.523116660268558], [179.20165288958702, -8.523116660268558], [179.20165288958702, -8.523392260917921], [179.2013760360223, -8.523392260917921], [179.2013760360223, -8.523667861366006], [179.20109918245763, -8.523667861366006], [179.20109918245763, -8.523943461612802], [179.20082232889294, -8.523943461612802], [179.20082232889294, -8.524219061658314], [179.20026862176354, -8.524219061658314], [179.20026862176354, -8.524494661502521], [179.19971491463414, -8.524494661502521], [179.19971491463414, -8.524770261145424], [179.19943806106943, -8.524770261145424], [179.19943806106943, -8.525045860587023], [179.19916120750474, -8.525045860587023], [179.19916120750474, -8.525321459827298], [179.19860750037535, -8.525321459827298], [179.19860750037535, -8.525872657703879], [179.19805379324598, -8.525872657703879], [179.19805379324598, -8.526148256340168], [179.19777693968126, -8.526148256340168], [179.19777693968126, -8.526423854775114], [179.19750008611655, -8.526423854775114], [179.19750008611655, -8.526699453008714], [179.19722323255186, -8.526699453008714], [179.19722323255186, -8.526975051040957], [179.19666952542246, -8.526975051040957], [179.19666952542246, -8.527250648871844], [179.1961158182931, -8.527250648871844], [179.1961158182931, -8.527526246501356], [179.19583896472838, -8.527526246501356], [179.19583896472838, -8.527801843929497], [179.19556211116367, -8.527801843929497], [179.19556211116367, -8.528077441156261], [179.19528525759898, -8.528077441156261], [179.19528525759898, -8.528353038181635], [179.19473155046958, -8.528353038181635], [179.19473155046958, -8.52862863500562], [179.19445469690487, -8.52862863500562], [179.19445469690487, -8.528904231628207], [179.1941778433402, -8.528904231628207], [179.1941778433402, -8.529179828049383], [179.1936241362108, -8.529179828049383], [179.1936241362108, -8.529455424269152], [179.1933472826461, -8.529455424269152], [179.1933472826461, -8.529731020287501], [179.19307042908142, -8.529731020287501], [179.19307042908142, -8.530282211719925], [179.192516721952, -8.530282211719925], [179.192516721952, -8.530557807133981], [179.19196301482262, -8.530557807133981], [179.19196301482262, -8.530282211719925], [179.19140930769322, -8.530282211719925], [179.19140930769322, -8.53000661610443], [179.19085560056382, -8.53000661610443], [179.19085560056382, -8.529179828049383], [179.19113245412854, -8.529179828049383], [179.19113245412854, -8.528904231628207], [179.19140930769322, -8.528904231628207], [179.19140930769322, -8.52862863500562], [179.1916861612579, -8.52862863500562], [179.1916861612579, -8.528353038181635], [179.19196301482262, -8.528353038181635], [179.19196301482262, -8.527801843929497], [179.19223986838733, -8.527801843929497], [179.19223986838733, -8.527250648871844], [179.192516721952, -8.527250648871844], [179.192516721952, -8.526699453008714], [179.1927935755167, -8.526699453008714], [179.1927935755167, -8.526148256340168], [179.1933472826461, -8.526148256340168], [179.1933472826461, -8.525321459827298], [179.1936241362108, -8.525321459827298], [179.1936241362108, -8.524770261145424], [179.1939009897755, -8.524770261145424], [179.1939009897755, -8.523943461612802], [179.1941778433402, -8.523943461612802], [179.1941778433402, -8.523667861366006], [179.19445469690487, -8.523667861366006], [179.19445469690487, -8.523392260917921], [179.19473155046958, -8.523392260917921], [179.19473155046958, -8.52201425565844], [179.1950084040343, -8.52201425565844], [179.1950084040343, -8.521463052145872], [179.19528525759898, -8.521463052145872], [179.19528525759898, -8.520911847828366], [179.19556211116367, -8.520911847828366], [179.19556211116367, -8.520636245367776], [179.19583896472838, -8.520636245367776], [179.19583896472838, -8.520360642705969], [179.1961158182931, -8.520360642705969], [179.1961158182931, -8.520085039842952], [179.19639267185778, -8.520085039842952], [179.19639267185778, -8.519258230046708], [179.19666952542246, -8.519258230046708], [179.19666952542246, -8.518982626378918], [179.19694637898718, -8.518982626378918], [179.19694637898718, -8.518707022509947], [179.19722323255186, -8.518707022509947], [179.19722323255186, -8.5181558141685], [179.19750008611655, -8.5181558141685], [179.19750008611655, -8.517880209696033], [179.19777693968126, -8.517880209696033], [179.19777693968126, -8.517329000147651], [179.19805379324598, -8.517329000147651], [179.19805379324598, -8.516777789794704], [179.19833064681066, -8.516777789794704], [179.19833064681066, -8.516226578637248], [179.19860750037535, -8.516226578637248], [179.19860750037535, -8.515675366675332], [179.19888435394006, -8.515675366675332], [179.19888435394006, -8.512092469317652], [179.19860750037535, -8.512092469317652], [179.19860750037535, -8.51099003252611], [179.19833064681066, -8.51099003252611], [179.19833064681066, -8.510438812924336], [179.19805379324598, -8.510438812924336], [179.19805379324598, -8.50906076040283], [179.19777693968126, -8.50906076040283], [179.19777693968126, -8.508509537987527], [179.19750008611655, -8.508509537987527], [179.19750008611655, -8.508233926478463], [179.19722323255186, -8.508233926478463], [179.19722323255186, -8.506580253204737], [179.19694637898718, -8.506580253204737], [179.19694637898718, -8.506304640289281], [179.19666952542246, -8.506304640289281], [179.19666952542246, -8.50602902717294], [179.19639267185778, -8.50602902717294], [179.19639267185778, -8.505202186618648], [179.1961158182931, -8.505202186618648], [179.1961158182931, -8.50465095857813], [179.19583896472838, -8.50465095857813], [179.19583896472838, -8.503824115010996], [179.19556211116367, -8.503824115010996], [179.19556211116367, -8.502170422454451], [179.19528525759898, -8.502170422454451], [179.19528525759898, -8.501619189995859], [179.1950084040343, -8.501619189995859], [179.1950084040343, -8.500792339802127], [179.19473155046958, -8.500792339802127], [179.19473155046958, -8.498863015657056], [179.19445469690487, -8.498863015657056], [179.19445469690487, -8.498587397119126], [179.1941778433402, -8.498587397119126], [179.1941778433402, -8.496382441590606], [179.1939009897755, -8.496382441590606], [179.1939009897755, -8.495555579956338], [179.1936241362108, -8.495555579956338], [179.1936241362108, -8.495279959010288], [179.1933472826461, -8.495279959010288], [179.1933472826461, -8.494453094968351], [179.19307042908142, -8.494453094968351], [179.19307042908142, -8.492248115363191], [179.192516721952, -8.492248115363191], [179.192516721952, -8.49059437223537], [179.19223986838733, -8.49059437223537], [179.19223986838733, -8.48866499612897], [179.19196301482262, -8.48866499612897], [179.19196301482262, -8.487286864324036], [179.1916861612579, -8.487286864324036], [179.1916861612579, -8.48067176191679], [179.19140930769322, -8.48067176191679], [179.19140930769322, -8.4798448660019], [179.1916861612579, -8.4798448660019], [179.1916861612579, -8.479017968284472], [179.19140930769322, -8.479017968284472], [179.19140930769322, -8.477639801416919], [179.19113245412854, -8.477639801416919], [179.19113245412854, -8.477088533268226], [179.19085560056382, -8.477088533268226], [179.19085560056382, -8.474883452665217], [179.1905787469991, -8.474883452665217], [179.1905787469991, -8.473505270782658], [179.19030189343445, -8.473505270782658], [179.19030189343445, -8.473229633805705], [179.19002503986974, -8.473229633805705], [179.19002503986974, -8.472678359251425], [179.18974818630502, -8.472678359251425], [179.18974818630502, -8.47212708389667], [179.18947133274034, -8.47212708389667], [179.18947133274034, -8.47185144591913], [179.18919447917565, -8.47185144591913], [179.18919447917565, -8.471575807741493], [179.18864077204623, -8.471575807741493], [179.18864077204623, -8.471300169363763], [179.18836391848154, -8.471300169363763], [179.18836391848154, -8.470748892008048], [179.18808706491686, -8.470748892008048], [179.18808706491686, -8.470473253030079], [179.18781021135214, -8.470473253030079], [179.18781021135214, -8.47019761385204], [179.18753335778746, -8.47019761385204], [179.18753335778746, -8.469646334895785], [179.18725650422277, -8.469646334895785], [179.18725650422277, -8.468819414961054], [179.18697965065806, -8.468819414961054], [179.18697965065806, -8.468543774582743], [179.18670279709335, -8.468543774582743], [179.18670279709335, -8.468268134004411], [179.18642594352866, -8.468268134004411], [179.18642594352866, -8.467165569690966], [179.18614908996395, -8.467165569690966], [179.18614908996395, -8.466338644355945], [179.18587223639926, -8.466338644355945], [179.18587223639926, -8.465511717221174], [179.18559538283458, -8.465511717221174], [179.18559538283458, -8.46468478828681], [179.18531852926986, -8.46468478828681], [179.18531852926986, -8.464133501330886], [179.18504167570518, -8.464133501330886], [179.18504167570518, -8.463582213575274], [179.18476482214047, -8.463582213575274], [179.18476482214047, -8.462479635665176], [179.18448796857578, -8.462479635665176], [179.18448796857578, -8.461928345510799], [179.18421111501107, -8.461928345510799], [179.18421111501107, -8.460274470250937], [179.18393426144638, -8.460274470250937], [179.18393426144638, -8.459723176898912], [179.1836574078817, -8.459723176898912], [179.1836574078817, -8.459171882747603], [179.183380554317, -8.459171882747603], [179.183380554317, -8.458620587797054], [179.1831037007523, -8.458620587797054], [179.1831037007523, -8.458069292047327], [179.18282684718758, -8.458069292047327], [179.18282684718758, -8.457517995498462], [179.1825499936229, -8.457517995498462], [179.1825499936229, -8.456966698150515], [179.1822731400582, -8.456966698150515], [179.1822731400582, -8.456415400003538], [179.1819962864935, -8.456415400003538], [179.1819962864935, -8.455864101057575], [179.18171943292882, -8.455864101057575], [179.18171943292882, -8.45503715114065], [179.1814425793641, -8.45503715114065], [179.1814425793641, -8.45448585019745], [179.18116572579942, -8.45448585019745], [179.18116572579942, -8.45393454845545], [179.1808888722347, -8.45393454845545], [179.1808888722347, -8.452556290606001], [179.18061201867002, -8.452556290606001], [179.18061201867002, -8.452280638437117], [179.1803351651053, -8.452280638437117], [179.1803351651053, -8.452004986068577], [179.18005831154062, -8.452004986068577], [179.18005831154062, -8.450902374598044], [179.17978145797593, -8.450902374598044], [179.17978145797593, -8.450626721231346], [179.17950460441122, -8.450626721231346], [179.17950460441122, -8.45035106766504], [179.17922775084654, -8.45035106766504], [179.17922775084654, -8.450075413899121], [179.17895089728182, -8.450075413899121], [179.17895089728182, -8.449248451403797], [179.17867404371714, -8.449248451403797], [179.17867404371714, -8.448972796839515], [179.17839719015242, -8.448972796839515], [179.17839719015242, -8.44869714207566], [179.17812033658774, -8.44869714207566], [179.17812033658774, -8.447594521024616], [179.17839719015242, -8.447594521024616], [179.17839719015242, -8.44731886526298], [179.17895089728182, -8.44731886526298], [179.17895089728182, -8.447594521024616], [179.17922775084654, -8.447594521024616]], [[179.19943806106943, -8.521738654002778], [179.19971491463414, -8.521738654002778], [179.19971491463414, -8.521463052145872], [179.19916120750474, -8.521463052145872], [179.19916120750474, -8.52201425565844], [179.19943806106943, -8.52201425565844], [179.19943806106943, -8.521738654002778]]], [[[179.08066788181424, -8.460825762803626], [179.08066788181424, -8.461101408780207], [179.08094473537892, -8.461101408780207], [179.08094473537892, -8.461377054556932], [179.0812215889436, -8.461377054556932], [179.0812215889436, -8.461652700133797], [179.08149844250832, -8.461652700133797], [179.08149844250832, -8.463306569397599], [179.0812215889436, -8.463306569397599], [179.0812215889436, -8.463582213575274], [179.08094473537892, -8.463582213575274], [179.08094473537892, -8.463857857553037], [179.08066788181424, -8.463857857553037], [179.08066788181424, -8.464960431464874], [179.0801141746848, -8.464960431464874], [179.0801141746848, -8.465236074442997], [179.07983732112012, -8.465236074442997], [179.07983732112012, -8.46468478828681], [179.07956046755544, -8.46468478828681], [179.07956046755544, -8.464409144908814], [179.07928361399073, -8.464409144908814], [179.07928361399073, -8.46303092502002], [179.07900676042604, -8.46303092502002], [179.07900676042604, -8.462203990687927], [179.07872990686133, -8.462203990687927], [179.07872990686133, -8.461928345510799], [179.07845305329664, -8.461928345510799], [179.07845305329664, -8.461652700133797], [179.07872990686133, -8.461652700133797], [179.07872990686133, -8.461101408780207], [179.07928361399073, -8.461101408780207], [179.07928361399073, -8.460825762803626], [179.07956046755544, -8.460825762803626], [179.07956046755544, -8.460550116627202], [179.07983732112012, -8.460550116627202], [179.07983732112012, -8.460825762803626], [179.08066788181424, -8.460825762803626]]], [[[179.1720295581644, -8.43767078794236], [179.1720295581644, -8.437946450684041], [179.1723064117291, -8.437946450684041], [179.1723064117291, -8.4382221132264], [179.17258326529378, -8.4382221132264], [179.17258326529378, -8.438773437713122], [179.1723064117291, -8.438773437713122], [179.1723064117291, -8.439600422948136], [179.1728601188585, -8.439600422948136], [179.1728601188585, -8.439876084294424], [179.17313697242318, -8.439876084294424], [179.17313697242318, -8.440427406388899], [179.17369067955258, -8.440427406388899], [179.17369067955258, -8.440978727685861], [179.1739675331173, -8.440978727685861], [179.1739675331173, -8.441805708135844], [179.17313697242318, -8.441805708135844], [179.17313697242318, -8.441530048185252], [179.1728601188585, -8.441530048185252], [179.1728601188585, -8.441254388035254], [179.1723064117291, -8.441254388035254], [179.1723064117291, -8.440978727685861], [179.1720295581644, -8.440978727685861], [179.1720295581644, -8.440703067137074], [179.1717527045997, -8.440703067137074], [179.1717527045997, -8.440427406388899], [179.17147585103498, -8.440427406388899], [179.17147585103498, -8.440151745441353], [179.1711989974703, -8.440151745441353], [179.1711989974703, -8.439876084294424], [179.1709221439056, -8.439876084294424], [179.1709221439056, -8.439600422948136], [179.1706452903409, -8.439600422948136], [179.1706452903409, -8.439324761402483], [179.17009158321153, -8.439324761402483], [179.17009158321153, -8.439049099657478], [179.16981472964682, -8.439049099657478], [179.16981472964682, -8.438497775569427], [179.1695378760821, -8.438497775569427], [179.1695378760821, -8.4382221132264], [179.16926102251742, -8.4382221132264], [179.16926102251742, -8.437946450684041], [179.16898416895273, -8.437946450684041], [179.16898416895273, -8.43767078794236], [179.16870731538802, -8.43767078794236], [179.16870731538802, -8.43739512500136], [179.1717527045997, -8.43739512500136], [179.1717527045997, -8.43767078794236], [179.1720295581644, -8.43767078794236]]]]}}, {"type": "Feature", "properties": {"class": "flooded"}, "geometry": {"type": "MultiPolygon", "coordinates": [[[[179.0704242999204, -8.59889923403727], [179.069870592791, -8.59889923403727], [179.069870592791, -8.598623688774184], [179.07014744635572, -8.598623688774184], [179.07014744635572, -8.5983481433081], [179.0704242999204, -8.5983481433081], [179.0704242999204, -8.59889923403727]]], [[[179.06904003209692, -8.598072597639018], [179.06959373922632, -8.598072597639018], [179.06959373922632, -8.5983481433081], [179.06904003209692, -8.5983481433081], [179.06904003209692, -8.598072597639018]]], [[[179.0709780070498, -8.598072597639018], [179.07125486061452, -8.598072597639018], [179.07125486061452, -8.5983481433081], [179.0709780070498, -8.5983481433081], [179.0709780070498, -8.598072597639018]]], [[[179.0709780070498, -8.5975215056919], [179.07125486061452, -8.5975215056919], [179.07125486061452, -8.597797051766948], [179.0709780070498, -8.597797051766948], [179.0709780070498, -8.5975215056919]]], [[[179.0707011534851, -8.597245959413879], [179.0709780070498, -8.597245959413879], [179.0709780070498, -8.5975215056919], [179.0707011534851, -8.5975215056919], [179.0707011534851, -8.597245959413879]]], [[[179.06931688566164, -8.596970412932887], [179.06959373922632, -8.596970412932887], [179.06959373922632, -8.597245959413879], [179.06931688566164, -8.597245959413879], [179.06931688566164, -8.596970412932887]]], [[[179.07014744635572, -8.596970412932887], [179.0704242999204, -8.596970412932887], [179.0704242999204, -8.597245959413879], [179.07014744635572, -8.597245959413879], [179.07014744635572, -8.596970412932887]]], [[[179.16483136548226, -8.545990828633727], [179.16483136548226, -8.546266412555472], [179.1642776583529, -8.546266412555472], [179.1642776583529, -8.545990828633727], [179.16483136548226, -8.545990828633727]]], [[[179.16593877974103, -8.545990828633727], [179.16593877974103, -8.546266412555472], [179.16538507261166, -8.546266412555472], [179.16538507261166, -8.545990828633727], [179.16593877974103, -8.545990828633727]]], [[[179.16400080478815, -8.54571524451019], [179.1642776583529, -8.54571524451019], [179.1642776583529, -8.545990828633727], [179.16400080478815, -8.545990828633727], [179.16400080478815, -8.54571524451019]]], [[[179.16593877974103, -8.54571524451019], [179.16621563330574, -8.54571524451019], [179.16621563330574, -8.545990828633727], [179.16593877974103, -8.545990828633727], [179.16593877974103, -8.54571524451019]]], [[[179.1642776583529, -8.545439660184863], [179.16455451191754, -8.545439660184863], [179.16455451191754, -8.54571524451019], [179.1642776583529, -8.54571524451019], [179.1642776583529, -8.545439660184863]]], [[[179.16566192617634, -8.545164075657748], [179.16593877974103, -8.545164075657748], [179.16593877974103, -8.54571524451019], [179.16566192617634, -8.54571524451019], [179.16566192617634, -8.545164075657748]]], [[[179.16455451191754, -8.545164075657748], [179.16483136548226, -8.545164075657748], [179.16483136548226, -8.545439660184863], [179.16455451191754, -8.545439660184863], [179.16455451191754, -8.545164075657748]]], [[[179.16538507261166, -8.544888490928857], [179.16566192617634, -8.544888490928857], [179.16566192617634, -8.545164075657748], [179.16538507261166, -8.545164075657748], [179.16538507261166, -8.544888490928857]]], [[[179.16483136548226, -8.544888490928857], [179.16510821904697, -8.544888490928857], [179.16510821904697, -8.545164075657748], [179.16483136548226, -8.545164075657748], [179.16483136548226, -8.544888490928857]]], [[[179.1695378760821, -8.541857045595577], [179.17009158321153, -8.541857045595577], [179.17009158321153, -8.5421326325436], [179.1711989974703, -8.5421326325436], [179.1711989974703, -8.542408219289918], [179.1695378760821, -8.542408219289918], [179.1695378760821, -8.541857045595577]]], [[[179.1711989974703, -8.541857045595577], [179.17147585103498, -8.541857045595577], [179.17147585103498, -8.5421326325436], [179.1711989974703, -8.5421326325436], [179.1711989974703, -8.541857045595577]]], [[[179.17258326529378, -8.541581458445854], [179.1720295581644, -8.541581458445854], [179.1720295581644, -8.541857045595577], [179.17147585103498, -8.541857045595577], [179.17147585103498, -8.541581458445854], [179.1706452903409, -8.541581458445854], [179.1706452903409, -8.541857045595577], [179.17009158321153, -8.541857045595577], [179.17009158321153, -8.541581458445854], [179.17036843677622, -8.541581458445854], [179.17036843677622, -8.541305871094435], [179.1711989974703, -8.541305871094435], [179.1711989974703, -8.541030283541325], [179.1717527045997, -8.541030283541325], [179.1717527045997, -8.540754695786536], [179.1720295581644, -8.540754695786536], [179.1720295581644, -8.540479107830068], [179.17258326529378, -8.540479107830068], [179.17258326529378, -8.540203519671929], [179.1728601188585, -8.540203519671929], [179.1728601188585, -8.540754695786536], [179.1723064117291, -8.540754695786536], [179.1723064117291, -8.541030283541325], [179.1739675331173, -8.541030283541325], [179.1739675331173, -8.541305871094435], [179.17258326529378, -8.541305871094435], [179.17258326529378, -8.541581458445854]]], [[[179.03664816502732, -8.512092469317652], [179.036925018592, -8.512092469317652], [179.036925018592, -8.512368078013], [179.03664816502732, -8.512368078013], [179.03664816502732, -8.512092469317652]]], [[[179.036925018592, -8.511816860421279], [179.03720187215671, -8.511816860421279], [179.03720187215671, -8.512092469317652], [179.036925018592, -8.512092469317652], [179.036925018592, -8.511816860421279]]], [[[179.0380324328508, -8.51099003252611], [179.0383092864155, -8.51099003252611], [179.0383092864155, -8.511541251323894], [179.0380324328508, -8.511541251323894], [179.0380324328508, -8.51099003252611]]], [[[179.03664816502732, -8.510714422825716], [179.03664816502732, -8.51099003252611], [179.03637131146263, -8.51099003252611], [179.03637131146263, -8.510714422825716], [179.03664816502732, -8.510714422825716]]], [[[179.03664816502732, -8.510714422825716], [179.03664816502732, -8.510438812924336], [179.036925018592, -8.510438812924336], [179.036925018592, -8.510714422825716], [179.03664816502732, -8.510714422825716]]], [[[179.036925018592, -8.510163202821975], [179.03720187215671, -8.510163202821975], [179.03720187215671, -8.510438812924336], [179.036925018592, -8.510438812924336], [179.036925018592, -8.510163202821975]]], [[[179.0380324328508, -8.50988759251864], [179.0380324328508, -8.510163202821975], [179.03775557928608, -8.510163202821975], [179.03775557928608, -8.50988759251864], [179.0380324328508, -8.50988759251864]]], [[[179.06211869297948, -8.490318747678845], [179.06211869297948, -8.491421244701742], [179.06184183941477, -8.491421244701742], [179.06184183941477, -8.49086999659136], [179.0615649858501, -8.49086999659136], [179.0615649858501, -8.49059437223537], [179.06101127872068, -8.49059437223537], [179.06101127872068, -8.490318747678845], [179.06211869297948, -8.490318747678845]]], [[[179.060734425156, -8.4900431229218], [179.06101127872068, -8.4900431229218], [179.06101127872068, -8.490318747678845], [179.060734425156, -8.490318747678845], [179.060734425156, -8.4900431229218]]], [[[179.0601807180266, -8.4900431229218], [179.06045757159131, -8.4900431229218], [179.06045757159131, -8.490318747678845], [179.0601807180266, -8.490318747678845], [179.0601807180266, -8.4900431229218]]], [[[179.0801141746848, -8.464960431464874], [179.08039102824952, -8.464960431464874], [179.08039102824952, -8.465236074442997], [179.0801141746848, -8.465236074442997], [179.0801141746848, -8.464960431464874]]], [[[179.07956046755544, -8.46468478828681], [179.07983732112012, -8.46468478828681], [179.07983732112012, -8.464960431464874], [179.07956046755544, -8.464960431464874], [179.07956046755544, -8.46468478828681]]], [[[179.08094473537892, -8.463582213575274], [179.0812215889436, -8.463582213575274], [179.0812215889436, -8.463857857553037], [179.08094473537892, -8.463857857553037], [179.08094473537892, -8.463582213575274]]], [[[179.08149844250832, -8.462755280442543], [179.081775296073, -8.462755280442543], [179.081775296073, -8.463306569397599], [179.08149844250832, -8.463306569397599], [179.08149844250832, -8.462755280442543]]], [[[179.07872990686133, -8.462203990687927], [179.07900676042604, -8.462203990687927], [179.07900676042604, -8.46303092502002], [179.07872990686133, -8.46303092502002], [179.07872990686133, -8.462203990687927]]], [[[179.07872990686133, -8.461928345510799], [179.07872990686133, -8.462203990687927], [179.07845305329664, -8.462203990687927], [179.07845305329664, -8.461928345510799], [179.07872990686133, -8.461928345510799]]], [[[179.081775296073, -8.461652700133797], [179.081775296073, -8.462203990687927], [179.08149844250832, -8.462203990687927], [179.08149844250832, -8.461652700133797], [179.081775296073, -8.461652700133797]]], [[[179.0812215889436, -8.461377054556932], [179.08149844250832, -8.461377054556932], [179.08149844250832, -8.461652700133797], [179.0812215889436, -8.461652700133797], [179.0812215889436, -8.461377054556932]]], [[[179.07845305329664, -8.461377054556932], [179.07872990686133, -8.461377054556932], [179.07872990686133, -8.461652700133797], [179.07845305329664, -8.461652700133797], [179.07845305329664, -8.461377054556932]]], [[[179.08094473537892, -8.461101408780207], [179.0812215889436, -8.461101408780207], [179.0812215889436, -8.461377054556932], [179.08094473537892, -8.461377054556932], [179.08094473537892, -8.461101408780207]]], [[[179.07872990686133, -8.460825762803626], [179.07928361399073, -8.460825762803626], [179.07928361399073, -8.461101408780207], [179.07872990686133, -8.461101408780207], [179.07872990686133, -8.460825762803626]]], [[[179.07928361399073, -8.460550116627202], [179.07956046755544, -8.460550116627202], [179.07956046755544, -8.460825762803626], [179.07928361399073, -8.460825762803626], [179.07928361399073, -8.460550116627202]]], [[[179.1717527045997, -8.440703067137074], [179.1720295581644, -8.440703067137074], [179.1720295581644, -8.440978727685861], [179.1717527045997, -8.440978727685861], [179.1717527045997, -8.440703067137074]]], [[[179.1709221439056, -8.439876084294424], [179.1711989974703, -8.439876084294424], [179.1711989974703, -8.440151745441353], [179.1709221439056, -8.440151745441353], [179.1709221439056, -8.439876084294424]]], [[[179.1709221439056, -8.439600422948136], [179.1709221439056, -8.439876084294424], [179.1706452903409, -8.439876084294424], [179.1706452903409, -8.439600422948136], [179.1709221439056, -8.439600422948136]]], [[[179.17036843677622, -8.439600422948136], [179.17036843677622, -8.439324761402483], [179.1706452903409, -8.439324761402483], [179.1706452903409, -8.439600422948136], [179.17036843677622, -8.439600422948136]]], [[[179.1695378760821, -8.438497775569427], [179.16981472964682, -8.438497775569427], [179.16981472964682, -8.438773437713122], [179.1695378760821, -8.438773437713122], [179.1695378760821, -8.438497775569427]]], [[[179.1695378760821, -8.438497775569427], [179.16926102251742, -8.438497775569427], [179.16926102251742, -8.4382221132264], [179.1695378760821, -8.4382221132264], [179.1695378760821, -8.438497775569427]]], [[[179.16898416895273, -8.437946450684041], [179.16926102251742, -8.437946450684041], [179.16926102251742, -8.4382221132264], [179.16898416895273, -8.4382221132264], [179.16898416895273, -8.437946450684041]]], [[[179.16843046182333, -8.43739512500136], [179.16870731538802, -8.43739512500136], [179.16870731538802, -8.43767078794236], [179.16898416895273, -8.43767078794236], [179.16898416895273, -8.437946450684041], [179.16843046182333, -8.437946450684041], [179.16843046182333, -8.43739512500136]]], [[[179.17452124024666, -8.540754695786536], [179.17452124024666, -8.541030283541325], [179.1739675331173, -8.541030283541325], [179.1739675331173, -8.540754695786536], [179.17452124024666, -8.540754695786536]]], [[[179.17452124024666, -8.540754695786536], [179.17452124024666, -8.540479107830068], [179.17590550807017, -8.540479107830068], [179.17590550807017, -8.540754695786536], [179.17452124024666, -8.540754695786536]]], [[[179.17673606876426, -8.540203519671929], [179.17701292232894, -8.540203519671929], [179.17701292232894, -8.540479107830068], [179.17673606876426, -8.540479107830068], [179.17673606876426, -8.540203519671929]]], [[[179.17313697242318, -8.539927931312128], [179.17313697242318, -8.540203519671929], [179.1728601188585, -8.540203519671929], [179.1728601188585, -8.539927931312128], [179.17313697242318, -8.539927931312128]]], [[[179.17867404371714, -8.539927931312128], [179.17867404371714, -8.540203519671929], [179.17756662945834, -8.540203519671929], [179.17756662945834, -8.539927931312128], [179.17867404371714, -8.539927931312128]]], [[[179.17313697242318, -8.539652342750667], [179.17369067955258, -8.539652342750667], [179.17369067955258, -8.539927931312128], [179.17313697242318, -8.539927931312128], [179.17313697242318, -8.539652342750667]]], [[[179.17978145797593, -8.539652342750667], [179.18005831154062, -8.539652342750667], [179.18005831154062, -8.539927931312128], [179.17978145797593, -8.539927931312128], [179.17978145797593, -8.539652342750667]]], [[[179.18061201867002, -8.539376753987558], [179.1808888722347, -8.539376753987558], [179.1808888722347, -8.539652342750667], [179.18061201867002, -8.539652342750667], [179.18061201867002, -8.539376753987558]]], [[[179.17452124024666, -8.539376753987558], [179.17479809381138, -8.539376753987558], [179.17479809381138, -8.539652342750667], [179.17452124024666, -8.539652342750667], [179.17452124024666, -8.539376753987558]]], [[[179.18116572579942, -8.539101165022805], [179.18171943292882, -8.539101165022805], [179.18171943292882, -8.539376753987558], [179.18116572579942, -8.539376753987558], [179.18116572579942, -8.539101165022805]]], [[[179.17479809381138, -8.539101165022805], [179.17507494737606, -8.539101165022805], [179.17507494737606, -8.539376753987558], [179.17479809381138, -8.539376753987558], [179.17479809381138, -8.539101165022805]]], [[[179.17673606876426, -8.538549986488384], [179.17701292232894, -8.538549986488384], [179.17701292232894, -8.538825575856407], [179.17673606876426, -8.538825575856407], [179.17673606876426, -8.538549986488384]]], [[[179.1808888722347, -8.537723217174578], [179.1808888722347, -8.537998807147462], [179.18061201867002, -8.537998807147462], [179.18061201867002, -8.537723217174578], [179.1808888722347, -8.537723217174578]]], [[[179.1814425793641, -8.537447627000088], [179.1814425793641, -8.537723217174578], [179.18116572579942, -8.537723217174578], [179.18116572579942, -8.537447627000088], [179.1814425793641, -8.537447627000088]]], [[[179.1814425793641, -8.45503715114065], [179.18171943292882, -8.45503715114065], [179.18171943292882, -8.45558845128499], [179.1814425793641, -8.45558845128499], [179.1814425793641, -8.45503715114065]]], [[[179.18116572579942, -8.45448585019745], [179.1814425793641, -8.45448585019745], [179.1814425793641, -8.454761500768905], [179.18116572579942, -8.454761500768905], [179.18116572579942, -8.45448585019745]]], [[[179.1808888722347, -8.45393454845545], [179.18116572579942, -8.45393454845545], [179.18116572579942, -8.454210199426297], [179.1808888722347, -8.454210199426297], [179.1808888722347, -8.45393454845545]]], [[[179.1808888722347, -8.452556290606001], [179.1808888722347, -8.453658897284908], [179.18061201867002, -8.453658897284908], [179.18061201867002, -8.452556290606001], [179.1808888722347, -8.452556290606001]]], [[[179.1803351651053, -8.452556290606001], [179.1803351651053, -8.452280638437117], [179.18061201867002, -8.452280638437117], [179.18061201867002, -8.452556290606001], [179.1803351651053, -8.452556290606001]]], [[[179.18005831154062, -8.452004986068577], [179.1803351651053, -8.452004986068577], [179.1803351651053, -8.452280638437117], [179.18005831154062, -8.452280638437117], [179.18005831154062, -8.452004986068577]]], [[[179.1814425793641, -8.451729333500396], [179.18171943292882, -8.451729333500396], [179.18171943292882, -8.452280638437117], [179.1814425793641, -8.452280638437117], [179.1814425793641, -8.451729333500396]]], [[[179.17978145797593, -8.450902374598044], [179.18005831154062, -8.450902374598044], [179.18005831154062, -8.452004986068577], [179.17978145797593, -8.452004986068577], [179.17978145797593, -8.450902374598044]]], [[[179.1814425793641, -8.450626721231346], [179.1814425793641, -8.451729333500396], [179.18116572579942, -8.451729333500396], [179.18116572579942, -8.450626721231346], [179.1814425793641, -8.450626721231346]]], [[[179.17978145797593, -8.450626721231346], [179.17978145797593, -8.450902374598044], [179.17950460441122, -8.450902374598044], [179.17950460441122, -8.450626721231346], [179.17978145797593, -8.450626721231346]]], [[[179.17922775084654, -8.45035106766504], [179.17950460441122, -8.45035106766504], [179.17950460441122, -8.450626721231346], [179.17922775084654, -8.450626721231346], [179.17922775084654, -8.45035106766504]]], [[[179.1808888722347, -8.45035106766504], [179.18116572579942, -8.45035106766504], [179.18116572579942, -8.450626721231346], [179.1808888722347, -8.450626721231346], [179.1808888722347, -8.45035106766504]]], [[[179.17895089728182, -8.450075413899121], [179.17922775084654, -8.450075413899121], [179.17922775084654, -8.45035106766504], [179.17895089728182, -8.45035106766504], [179.17895089728182, -8.450075413899121]]], [[[179.18061201867002, -8.449799759933605], [179.1808888722347, -8.449799759933605], [179.1808888722347, -8.45035106766504], [179.18061201867002, -8.45035106766504], [179.18061201867002, -8.449799759933605]]], [[[179.17867404371714, -8.449248451403797], [179.17895089728182, -8.449248451403797], [179.17895089728182, -8.449524105768495], [179.17867404371714, -8.449524105768495], [179.17867404371714, -8.449248451403797]]], [[[179.1803351651053, -8.448972796839515], [179.18061201867002, -8.448972796839515], [179.18061201867002, -8.449524105768495], [179.1803351651053, -8.449524105768495], [179.1803351651053, -8.448972796839515]]], [[[179.17839719015242, -8.448972796839515], [179.17867404371714, -8.448972796839515], [179.17867404371714, -8.449248451403797], [179.17839719015242, -8.449248451403797], [179.17839719015242, -8.448972796839515]]], [[[179.17839719015242, -8.44869714207566], [179.17839719015242, -8.448972796839515], [179.17812033658774, -8.448972796839515], [179.17812033658774, -8.44869714207566], [179.17839719015242, -8.44869714207566]]], [[[179.1803351651053, -8.448421487112237], [179.1803351651053, -8.448972796839515], [179.18005831154062, -8.448972796839515], [179.18005831154062, -8.448421487112237], [179.1803351651053, -8.448421487112237]]], [[[179.17978145797593, -8.44814583194925], [179.18005831154062, -8.44814583194925], [179.18005831154062, -8.448421487112237], [179.17978145797593, -8.448421487112237], [179.17978145797593, -8.44814583194925]]], [[[179.17978145797593, -8.44814583194925], [179.17950460441122, -8.44814583194925], [179.17950460441122, -8.44787017658671], [179.17978145797593, -8.44787017658671], [179.17978145797593, -8.44814583194925]]], [[[179.17922775084654, -8.447594521024616], [179.17950460441122, -8.447594521024616], [179.17950460441122, -8.44787017658671], [179.17922775084654, -8.44787017658671], [179.17922775084654, -8.447594521024616]]], [[[179.17784348302305, -8.447594521024616], [179.17812033658774, -8.447594521024616], [179.17812033658774, -8.44787017658671], [179.17784348302305, -8.44787017658671], [179.17784348302305, -8.447594521024616]]], [[[179.17812033658774, -8.44731886526298], [179.17839719015242, -8.44731886526298], [179.17839719015242, -8.447594521024616], [179.17812033658774, -8.447594521024616], [179.17812033658774, -8.44731886526298]]], [[[179.17895089728182, -8.44731886526298], [179.17922775084654, -8.44731886526298], [179.17922775084654, -8.447594521024616], [179.17895089728182, -8.447594521024616], [179.17895089728182, -8.44731886526298]]], [[[179.17839719015242, -8.447043209301807], [179.17895089728182, -8.447043209301807], [179.17895089728182, -8.44731886526298], [179.17839719015242, -8.44731886526298], [179.17839719015242, -8.447043209301807]]], [[[179.17424438668198, -8.443735322206123], [179.17424438668198, -8.442908345944033], [179.17452124024666, -8.442908345944033], [179.17452124024666, -8.443184004897509], [179.17507494737606, -8.443184004897509], [179.17507494737606, -8.442357027438787], [179.17535180094075, -8.442357027438787], [179.17535180094075, -8.443459663651542], [179.17479809381138, -8.443459663651542], [179.17479809381138, -8.443735322206123], [179.17424438668198, -8.443735322206123]]], [[[179.1739675331173, -8.442908345944033], [179.1739675331173, -8.442632686791125], [179.17424438668198, -8.442632686791125], [179.17424438668198, -8.442908345944033], [179.1739675331173, -8.442908345944033]]], [[[179.1728601188585, -8.441530048185252], [179.17313697242318, -8.441530048185252], [179.17313697242318, -8.441805708135844], [179.1728601188585, -8.441805708135844], [179.1728601188585, -8.441530048185252]]], [[[179.1728601188585, -8.441530048185252], [179.17258326529378, -8.441530048185252], [179.17258326529378, -8.441254388035254], [179.1728601188585, -8.441254388035254], [179.1728601188585, -8.441530048185252]]], [[[179.17424438668198, -8.442081367887024], [179.1739675331173, -8.442081367887024], [179.1739675331173, -8.442357027438787], [179.17313697242318, -8.442357027438787], [179.17313697242318, -8.441805708135844], [179.1739675331173, -8.441805708135844], [179.1739675331173, -8.440978727685861], [179.17369067955258, -8.440978727685861], [179.17369067955258, -8.440427406388899], [179.1739675331173, -8.440427406388899], [179.1739675331173, -8.440703067137074], [179.17424438668198, -8.440703067137074], [179.17424438668198, -8.441530048185252], [179.17479809381138, -8.441530048185252], [179.17479809381138, -8.441805708135844], [179.17424438668198, -8.441805708135844], [179.17424438668198, -8.442081367887024]]], [[[179.17369067955258, -8.440427406388899], [179.17313697242318, -8.440427406388899], [179.17313697242318, -8.440151745441353], [179.17369067955258, -8.440151745441353], [179.17369067955258, -8.440427406388899]]], [[[179.1728601188585, -8.439600422948136], [179.17313697242318, -8.439600422948136], [179.17313697242318, -8.439876084294424], [179.1728601188585, -8.439876084294424], [179.1728601188585, -8.439600422948136]]], [[[179.1728601188585, -8.439324761402483], [179.17258326529378, -8.439324761402483], [179.17258326529378, -8.439600422948136], [179.1723064117291, -8.439600422948136], [179.1723064117291, -8.438773437713122], [179.1728601188585, -8.438773437713122], [179.1728601188585, -8.439324761402483]]], [[[179.1720295581644, -8.43767078794236], [179.1717527045997, -8.43767078794236], [179.1717527045997, -8.43739512500136], [179.1723064117291, -8.43739512500136], [179.1723064117291, -8.43767078794236], [179.17258326529378, -8.43767078794236], [179.17258326529378, -8.4382221132264], [179.1723064117291, -8.4382221132264], [179.1723064117291, -8.437946450684041], [179.1720295581644, -8.437946450684041], [179.1720295581644, -8.43767078794236]]], [[[179.1819962864935, -8.538825575856407], [179.1819962864935, -8.539101165022805], [179.18171943292882, -8.539101165022805], [179.18171943292882, -8.538825575856407], [179.1819962864935, -8.538825575856407]]], [[[179.1825499936229, -8.538549986488384], [179.1825499936229, -8.538825575856407], [179.1822731400582, -8.538825575856407], [179.1822731400582, -8.538549986488384], [179.1825499936229, -8.538549986488384]]], [[[179.1825499936229, -8.538274396918732], [179.18282684718758, -8.538274396918732], [179.18282684718758, -8.538549986488384], [179.1825499936229, -8.538549986488384], [179.1825499936229, -8.538274396918732]]], [[[179.1831037007523, -8.537998807147462], [179.183380554317, -8.537998807147462], [179.183380554317, -8.538274396918732], [179.1831037007523, -8.538274396918732], [179.1831037007523, -8.537998807147462]]], [[[179.1836574078817, -8.537723217174578], [179.1836574078817, -8.537998807147462], [179.183380554317, -8.537998807147462], [179.183380554317, -8.537723217174578], [179.1836574078817, -8.537723217174578]]], [[[179.1836574078817, -8.537723217174578], [179.1836574078817, -8.537447627000088], [179.18393426144638, -8.537447627000088], [179.18393426144638, -8.537723217174578], [179.1836574078817, -8.537723217174578]]], [[[179.18421111501107, -8.537172036623993], [179.18421111501107, -8.537447627000088], [179.18393426144638, -8.537447627000088], [179.18393426144638, -8.537172036623993], [179.18421111501107, -8.537172036623993]]], [[[179.18421111501107, -8.537172036623993], [179.18421111501107, -8.536896446046308], [179.18448796857578, -8.536896446046308], [179.18448796857578, -8.537172036623993], [179.18421111501107, -8.537172036623993]]], [[[179.18448796857578, -8.536620855267033], [179.18476482214047, -8.536620855267033], [179.18476482214047, -8.536896446046308], [179.18448796857578, -8.536896446046308], [179.18448796857578, -8.536620855267033]]], [[[179.18531852926986, -8.536345264286178], [179.18531852926986, -8.536620855267033], [179.18504167570518, -8.536620855267033], [179.18504167570518, -8.536345264286178], [179.18531852926986, -8.536345264286178]]], [[[179.1836574078817, -8.536069673103745], [179.1836574078817, -8.536345264286178], [179.183380554317, -8.536345264286178], [179.183380554317, -8.536069673103745], [179.1836574078817, -8.536069673103745]]], [[[179.18531852926986, -8.536069673103745], [179.18559538283458, -8.536069673103745], [179.18559538283458, -8.536345264286178], [179.18531852926986, -8.536345264286178], [179.18531852926986, -8.536069673103745]]], [[[179.18393426144638, -8.535794081719743], [179.18421111501107, -8.535794081719743], [179.18421111501107, -8.536069673103745], [179.18393426144638, -8.536069673103745], [179.18393426144638, -8.535794081719743]]], [[[179.18587223639926, -8.535518490134184], [179.18642594352866, -8.535518490134184], [179.18642594352866, -8.535794081719743], [179.18614908996395, -8.535794081719743], [179.18614908996395, -8.536069673103745], [179.18559538283458, -8.536069673103745], [179.18559538283458, -8.535794081719743], [179.18587223639926, -8.535794081719743], [179.18587223639926, -8.535518490134184]]], [[[179.18421111501107, -8.535518490134184], [179.18448796857578, -8.535518490134184], [179.18448796857578, -8.535794081719743], [179.18421111501107, -8.535794081719743], [179.18421111501107, -8.535518490134184]]], [[[179.18448796857578, -8.535518490134184], [179.18448796857578, -8.535242898347063], [179.18476482214047, -8.535242898347063], [179.18476482214047, -8.53496730635839], [179.18504167570518, -8.53496730635839], [179.18504167570518, -8.535518490134184], [179.18448796857578, -8.535518490134184]]], [[[179.18504167570518, -8.53496730635839], [179.18504167570518, -8.534691714168176], [179.18531852926986, -8.534691714168176], [179.18531852926986, -8.53496730635839], [179.18504167570518, -8.53496730635839]]], [[[179.18559538283458, -8.534416121776426], [179.18559538283458, -8.534691714168176], [179.18531852926986, -8.534691714168176], [179.18531852926986, -8.534416121776426], [179.18559538283458, -8.534416121776426]]], [[[179.18587223639926, -8.534416121776426], [179.18559538283458, -8.534416121776426], [179.18559538283458, -8.53414052918314], [179.18587223639926, -8.53414052918314], [179.18587223639926, -8.534416121776426]]], [[[179.18587223639926, -8.533864936388333], [179.18614908996395, -8.533864936388333], [179.18614908996395, -8.53414052918314], [179.18587223639926, -8.53414052918314], [179.18587223639926, -8.533864936388333]]], [[[179.18587223639926, -8.466338644355945], [179.18614908996395, -8.466338644355945], [179.18614908996395, -8.46661428633427], [179.18587223639926, -8.46661428633427], [179.18587223639926, -8.466338644355945]]], [[[179.18559538283458, -8.465511717221174], [179.18587223639926, -8.465511717221174], [179.18587223639926, -8.465787359799391], [179.18559538283458, -8.465787359799391], [179.18559538283458, -8.465511717221174]]], [[[179.18531852926986, -8.46468478828681], [179.18559538283458, -8.46468478828681], [179.18559538283458, -8.464960431464874], [179.18531852926986, -8.464960431464874], [179.18531852926986, -8.46468478828681]]], [[[179.18504167570518, -8.464133501330886], [179.18531852926986, -8.464133501330886], [179.18531852926986, -8.464409144908814], [179.18504167570518, -8.464409144908814], [179.18504167570518, -8.464133501330886]]], [[[179.18476482214047, -8.463582213575274], [179.18504167570518, -8.463582213575274], [179.18504167570518, -8.463857857553037], [179.18476482214047, -8.463857857553037], [179.18476482214047, -8.463582213575274]]], [[[179.18448796857578, -8.462479635665176], [179.18476482214047, -8.462479635665176], [179.18476482214047, -8.462755280442543], [179.18448796857578, -8.462755280442543], [179.18448796857578, -8.462479635665176]]], [[[179.18559538283458, -8.460825762803626], [179.18587223639926, -8.460825762803626], [179.18587223639926, -8.461101408780207], [179.18559538283458, -8.461101408780207], [179.18559538283458, -8.460825762803626]]], [[[179.18421111501107, -8.460274470250937], [179.18421111501107, -8.460825762803626], [179.18393426144638, -8.460825762803626], [179.18393426144638, -8.460274470250937], [179.18421111501107, -8.460274470250937]]], [[[179.18393426144638, -8.459723176898912], [179.18393426144638, -8.459998823674837], [179.1836574078817, -8.459998823674837], [179.1836574078817, -8.459723176898912], [179.18393426144638, -8.459723176898912]]], [[[179.18531852926986, -8.459723176898912], [179.18559538283458, -8.459723176898912], [179.18559538283458, -8.459998823674837], [179.18531852926986, -8.459998823674837], [179.18531852926986, -8.459723176898912]]], [[[179.183380554317, -8.459171882747603], [179.1836574078817, -8.459171882747603], [179.1836574078817, -8.459447529923166], [179.183380554317, -8.459447529923166], [179.183380554317, -8.459171882747603]]], [[[179.18504167570518, -8.459171882747603], [179.18531852926986, -8.459171882747603], [179.18531852926986, -8.459447529923166], [179.18504167570518, -8.459447529923166], [179.18504167570518, -8.459171882747603]]], [[[179.1831037007523, -8.458620587797054], [179.183380554317, -8.458620587797054], [179.183380554317, -8.458896235372228], [179.1831037007523, -8.458896235372228], [179.1831037007523, -8.458620587797054]]], [[[179.18476482214047, -8.458344940022084], [179.18504167570518, -8.458344940022084], [179.18504167570518, -8.458620587797054], [179.18476482214047, -8.458620587797054], [179.18476482214047, -8.458344940022084]]], [[[179.18282684718758, -8.458069292047327], [179.1831037007523, -8.458069292047327], [179.1831037007523, -8.458344940022084], [179.18282684718758, -8.458344940022084], [179.18282684718758, -8.458069292047327]]], [[[179.18448796857578, -8.457793643872781], [179.18476482214047, -8.457793643872781], [179.18476482214047, -8.458069292047327], [179.18448796857578, -8.458069292047327], [179.18448796857578, -8.457793643872781]]], [[[179.18282684718758, -8.457517995498462], [179.18282684718758, -8.457793643872781], [179.1825499936229, -8.457793643872781], [179.1825499936229, -8.457517995498462], [179.18282684718758, -8.457517995498462]]], [[[179.18448796857578, -8.457517995498462], [179.18448796857578, -8.457793643872781], [179.18421111501107, -8.457793643872781], [179.18421111501107, -8.457517995498462], [179.18448796857578, -8.457517995498462]]], [[[179.1822731400582, -8.456966698150515], [179.1825499936229, -8.456966698150515], [179.1825499936229, -8.457242346924371], [179.1822731400582, -8.457242346924371], [179.1822731400582, -8.456966698150515]]], [[[179.18393426144638, -8.456691049176902], [179.18421111501107, -8.456691049176902], [179.18421111501107, -8.456966698150515], [179.18393426144638, -8.456966698150515], [179.18393426144638, -8.456691049176902]]], [[[179.1819962864935, -8.456415400003538], [179.1822731400582, -8.456415400003538], [179.1822731400582, -8.456691049176902], [179.1819962864935, -8.456691049176902], [179.1819962864935, -8.456415400003538]]], [[[179.18393426144638, -8.456139750630426], [179.18393426144638, -8.456415400003538], [179.1836574078817, -8.456415400003538], [179.1836574078817, -8.456139750630426], [179.18393426144638, -8.456139750630426]]], [[[179.1819962864935, -8.455864101057575], [179.1819962864935, -8.456139750630426], [179.18171943292882, -8.456139750630426], [179.18171943292882, -8.455864101057575], [179.1819962864935, -8.455864101057575]]], [[[179.183380554317, -8.455312801312681], [179.1836574078817, -8.455312801312681], [179.1836574078817, -8.45558845128499], [179.183380554317, -8.45558845128499], [179.183380554317, -8.455312801312681]]], [[[179.183380554317, -8.455312801312681], [179.1831037007523, -8.455312801312681], [179.1831037007523, -8.454761500768905], [179.183380554317, -8.454761500768905], [179.183380554317, -8.455312801312681]]], [[[179.18282684718758, -8.45393454845545], [179.1831037007523, -8.45393454845545], [179.1831037007523, -8.45448585019745], [179.18282684718758, -8.45448585019745], [179.18282684718758, -8.45393454845545]]], [[[179.18282684718758, -8.453658897284908], [179.18282684718758, -8.45393454845545], [179.1825499936229, -8.45393454845545], [179.1825499936229, -8.453658897284908], [179.18282684718758, -8.453658897284908]]], [[[179.1822731400582, -8.453658897284908], [179.1822731400582, -8.453383245914694], [179.1825499936229, -8.453383245914694], [179.1825499936229, -8.453658897284908], [179.1822731400582, -8.453658897284908]]], [[[179.18171943292882, -8.452280638437117], [179.1819962864935, -8.452280638437117], [179.1819962864935, -8.45283194257523], [179.1822731400582, -8.45283194257523], [179.1822731400582, -8.453383245914694], [179.1819962864935, -8.453383245914694], [179.1819962864935, -8.453107594344797], [179.18171943292882, -8.453107594344797], [179.18171943292882, -8.452280638437117]]], [[[179.18697965065806, -8.535242898347063], [179.18670279709335, -8.535242898347063], [179.18670279709335, -8.535518490134184], [179.18642594352866, -8.535518490134184], [179.18642594352866, -8.53496730635839], [179.18670279709335, -8.53496730635839], [179.18670279709335, -8.534416121776426], [179.18697965065806, -8.534416121776426], [179.18697965065806, -8.53414052918314], [179.18781021135214, -8.53414052918314], [179.18781021135214, -8.534416121776426], [179.18753335778746, -8.534416121776426], [179.18753335778746, -8.534691714168176], [179.18725650422277, -8.534691714168176], [179.18725650422277, -8.53496730635839], [179.18697965065806, -8.53496730635839], [179.18697965065806, -8.535242898347063]]], [[[179.18781021135214, -8.533864936388333], [179.18808706491686, -8.533864936388333], [179.18808706491686, -8.53414052918314], [179.18781021135214, -8.53414052918314], [179.18781021135214, -8.533864936388333]]], [[[179.18614908996395, -8.533589343392006], [179.18642594352866, -8.533589343392006], [179.18642594352866, -8.533864936388333], [179.18614908996395, -8.533864936388333], [179.18614908996395, -8.533589343392006]]], [[[179.18725650422277, -8.532762563193977], [179.18725650422277, -8.533038156794824], [179.18697965065806, -8.533038156794824], [179.18697965065806, -8.532762563193977], [179.18725650422277, -8.532762563193977]]], [[[179.18725650422277, -8.532762563193977], [179.18725650422277, -8.53248696939164], [179.18753335778746, -8.53248696939164], [179.18753335778746, -8.532762563193977], [179.18725650422277, -8.532762563193977]]], [[[179.18974818630502, -8.532211375387815], [179.19002503986974, -8.532211375387815], [179.19002503986974, -8.53248696939164], [179.18974818630502, -8.53248696939164], [179.18974818630502, -8.532211375387815]]], [[[179.18781021135214, -8.53248696939164], [179.18753335778746, -8.53248696939164], [179.18753335778746, -8.532211375387815], [179.18781021135214, -8.532211375387815], [179.18781021135214, -8.53248696939164]]], [[[179.18781021135214, -8.531935781182508], [179.18808706491686, -8.531935781182508], [179.18808706491686, -8.532211375387815], [179.18781021135214, -8.532211375387815], [179.18781021135214, -8.531935781182508]]], [[[179.19030189343445, -8.531935781182508], [179.1905787469991, -8.531935781182508], [179.1905787469991, -8.532211375387815], [179.19030189343445, -8.532211375387815], [179.19030189343445, -8.531935781182508]]], [[[179.18891762561094, -8.531108997357766], [179.18919447917565, -8.531108997357766], [179.18919447917565, -8.531384592167477], [179.18891762561094, -8.531384592167477], [179.18891762561094, -8.531108997357766]]], [[[179.18947133274034, -8.5308334023466], [179.18947133274034, -8.531108997357766], [179.18919447917565, -8.531108997357766], [179.18919447917565, -8.5308334023466], [179.18947133274034, -8.5308334023466]]], [[[179.18947133274034, -8.5308334023466], [179.18947133274034, -8.530557807133981], [179.18974818630502, -8.530557807133981], [179.18974818630502, -8.5308334023466], [179.18947133274034, -8.5308334023466]]], [[[179.19002503986974, -8.530282211719925], [179.19002503986974, -8.530557807133981], [179.18974818630502, -8.530557807133981], [179.18974818630502, -8.530282211719925], [179.19002503986974, -8.530282211719925]]], [[[179.19002503986974, -8.530282211719925], [179.19002503986974, -8.53000661610443], [179.19030189343445, -8.53000661610443], [179.19030189343445, -8.530282211719925], [179.19002503986974, -8.530282211719925]]], [[[179.19113245412854, -8.477639801416919], [179.19140930769322, -8.477639801416919], [179.19140930769322, -8.478466702138196], [179.19113245412854, -8.478466702138196], [179.19113245412854, -8.477639801416919]]], [[[179.19113245412854, -8.477088533268226], [179.19113245412854, -8.477364167442685], [179.19085560056382, -8.477364167442685], [179.19085560056382, -8.477088533268226], [179.19113245412854, -8.477088533268226]]], [[[179.19085560056382, -8.474883452665217], [179.19085560056382, -8.47515908844125], [179.1905787469991, -8.47515908844125], [179.1905787469991, -8.474883452665217], [179.19085560056382, -8.474883452665217]]], [[[179.19030189343445, -8.473505270782658], [179.1905787469991, -8.473505270782658], [179.1905787469991, -8.474332180512658], [179.19030189343445, -8.474332180512658], [179.19030189343445, -8.473505270782658]]], [[[179.19030189343445, -8.473505270782658], [179.19002503986974, -8.473505270782658], [179.19002503986974, -8.473229633805705], [179.19030189343445, -8.473229633805705], [179.19030189343445, -8.473505270782658]]], [[[179.18974818630502, -8.472678359251425], [179.19002503986974, -8.472678359251425], [179.19002503986974, -8.473229633805705], [179.18974818630502, -8.473229633805705], [179.18974818630502, -8.472678359251425]]], [[[179.19113245412854, -8.472678359251425], [179.19140930769322, -8.472678359251425], [179.19140930769322, -8.472953996628629], [179.19113245412854, -8.472953996628629], [179.19113245412854, -8.472678359251425]]], [[[179.19085560056382, -8.472402721674104], [179.19113245412854, -8.472402721674104], [179.19113245412854, -8.472678359251425], [179.19085560056382, -8.472678359251425], [179.19085560056382, -8.472402721674104]]], [[[179.18947133274034, -8.47212708389667], [179.18974818630502, -8.47212708389667], [179.18974818630502, -8.472402721674104], [179.18947133274034, -8.472402721674104], [179.18947133274034, -8.47212708389667]]], [[[179.18919447917565, -8.47185144591913], [179.18947133274034, -8.47185144591913], [179.18947133274034, -8.47212708389667], [179.18919447917565, -8.47212708389667], [179.18919447917565, -8.47185144591913]]], [[[179.19085560056382, -8.47185144591913], [179.19085560056382, -8.47212708389667], [179.1905787469991, -8.47212708389667], [179.1905787469991, -8.47185144591913], [179.19085560056382, -8.47185144591913]]], [[[179.18919447917565, -8.471575807741493], [179.18919447917565, -8.47185144591913], [179.18891762561094, -8.47185144591913], [179.18891762561094, -8.471575807741493], [179.18919447917565, -8.471575807741493]]], [[[179.19030189343445, -8.471300169363763], [179.1905787469991, -8.471300169363763], [179.1905787469991, -8.471575807741493], [179.19030189343445, -8.471575807741493], [179.19030189343445, -8.471300169363763]]], [[[179.18836391848154, -8.471300169363763], [179.18864077204623, -8.471300169363763], [179.18864077204623, -8.471575807741493], [179.18836391848154, -8.471575807741493], [179.18836391848154, -8.471300169363763]]], [[[179.19002503986974, -8.471024530785945], [179.19030189343445, -8.471024530785945], [179.19030189343445, -8.471300169363763], [179.19002503986974, -8.471300169363763], [179.19002503986974, -8.471024530785945]]], [[[179.18808706491686, -8.470748892008048], [179.18836391848154, -8.470748892008048], [179.18836391848154, -8.471024530785945], [179.18808706491686, -8.471024530785945], [179.18808706491686, -8.470748892008048]]], [[[179.18974818630502, -8.470473253030079], [179.19002503986974, -8.470473253030079], [179.19002503986974, -8.471024530785945], [179.18974818630502, -8.471024530785945], [179.18974818630502, -8.470473253030079]]], [[[179.18781021135214, -8.470473253030079], [179.18808706491686, -8.470473253030079], [179.18808706491686, -8.470748892008048], [179.18781021135214, -8.470748892008048], [179.18781021135214, -8.470473253030079]]], [[[179.18947133274034, -8.47019761385204], [179.18974818630502, -8.47019761385204], [179.18974818630502, -8.470473253030079], [179.18947133274034, -8.470473253030079], [179.18947133274034, -8.47019761385204]]], [[[179.18947133274034, -8.46992197447394], [179.18947133274034, -8.47019761385204], [179.18919447917565, -8.47019761385204], [179.18919447917565, -8.46992197447394], [179.18947133274034, -8.46992197447394]]], [[[179.18725650422277, -8.468819414961054], [179.18725650422277, -8.469095055139338], [179.18697965065806, -8.469095055139338], [179.18697965065806, -8.468819414961054], [179.18725650422277, -8.468819414961054]]], [[[179.18670279709335, -8.468543774582743], [179.18697965065806, -8.468543774582743], [179.18697965065806, -8.468819414961054], [179.18670279709335, -8.468819414961054], [179.18670279709335, -8.468543774582743]]], [[[179.18891762561094, -8.468543774582743], [179.18919447917565, -8.468543774582743], [179.18919447917565, -8.468819414961054], [179.18891762561094, -8.468819414961054], [179.18891762561094, -8.468543774582743]]], [[[179.18864077204623, -8.467992493226056], [179.18891762561094, -8.467992493226056], [179.18891762561094, -8.468268134004411], [179.18864077204623, -8.468268134004411], [179.18864077204623, -8.467992493226056]]], [[[179.18836391848154, -8.46744121106933], [179.18864077204623, -8.46744121106933], [179.18864077204623, -8.467716852247696], [179.18836391848154, -8.467716852247696], [179.18836391848154, -8.46744121106933]]], [[[179.18614908996395, -8.467165569690966], [179.18642594352866, -8.467165569690966], [179.18642594352866, -8.46744121106933], [179.18614908996395, -8.46744121106933], [179.18614908996395, -8.467165569690966]]], [[[179.18808706491686, -8.467165569690966], [179.18836391848154, -8.467165569690966], [179.18836391848154, -8.46744121106933], [179.18808706491686, -8.46744121106933], [179.18808706491686, -8.467165569690966]]], [[[179.18781021135214, -8.46661428633427], [179.18808706491686, -8.46661428633427], [179.18808706491686, -8.466889928112609], [179.18781021135214, -8.466889928112609], [179.18781021135214, -8.46661428633427]]], [[[179.18781021135214, -8.465787359799391], [179.18781021135214, -8.46606300217765], [179.18753335778746, -8.46606300217765], [179.18753335778746, -8.465787359799391], [179.18781021135214, -8.465787359799391]]], [[[179.18753335778746, -8.464960431464874], [179.18753335778746, -8.465236074442997], [179.18725650422277, -8.465236074442997], [179.18725650422277, -8.464960431464874], [179.18753335778746, -8.464960431464874]]], [[[179.18697965065806, -8.464133501330886], [179.18725650422277, -8.464133501330886], [179.18725650422277, -8.464409144908814], [179.18697965065806, -8.464409144908814], [179.18697965065806, -8.464133501330886]]], [[[179.18670279709335, -8.463306569397599], [179.18697965065806, -8.463306569397599], [179.18697965065806, -8.463582213575274], [179.18670279709335, -8.463582213575274], [179.18670279709335, -8.463306569397599]]], [[[179.18642594352866, -8.462755280442543], [179.18670279709335, -8.462755280442543], [179.18670279709335, -8.46303092502002], [179.18642594352866, -8.46303092502002], [179.18642594352866, -8.462755280442543]]], [[[179.18614908996395, -8.462203990687927], [179.18642594352866, -8.462203990687927], [179.18642594352866, -8.462479635665176], [179.18614908996395, -8.462479635665176], [179.18614908996395, -8.462203990687927]]], [[[179.18587223639926, -8.461377054556932], [179.18614908996395, -8.461377054556932], [179.18614908996395, -8.461652700133797], [179.18587223639926, -8.461652700133797], [179.18587223639926, -8.461377054556932]]], [[[179.192516721952, -8.5308334023466], [179.1916861612579, -8.5308334023466], [179.1916861612579, -8.531108997357766], [179.19140930769322, -8.531108997357766], [179.19140930769322, -8.531384592167477], [179.19113245412854, -8.531384592167477], [179.19113245412854, -8.531935781182508], [179.19085560056382, -8.531935781182508], [179.19085560056382, -8.531108997357766], [179.19113245412854, -8.531108997357766], [179.19113245412854, -8.5308334023466], [179.19085560056382, -8.5308334023466], [179.19085560056382, -8.530282211719925], [179.1905787469991, -8.530282211719925], [179.1905787469991, -8.529455424269152], [179.19085560056382, -8.529455424269152], [179.19085560056382, -8.53000661610443], [179.19140930769322, -8.53000661610443], [179.19140930769322, -8.530282211719925], [179.19196301482262, -8.530282211719925], [179.19196301482262, -8.530557807133981], [179.192516721952, -8.530557807133981], [179.192516721952, -8.5308334023466]]], [[[179.192516721952, -8.530282211719925], [179.1927935755167, -8.530282211719925], [179.1927935755167, -8.530557807133981], [179.192516721952, -8.530557807133981], [179.192516721952, -8.530282211719925]]], [[[179.1933472826461, -8.53000661610443], [179.19307042908142, -8.53000661610443], [179.19307042908142, -8.529731020287501], [179.1933472826461, -8.529731020287501], [179.1933472826461, -8.53000661610443]]], [[[179.1933472826461, -8.529455424269152], [179.1936241362108, -8.529455424269152], [179.1936241362108, -8.529731020287501], [179.1933472826461, -8.529731020287501], [179.1933472826461, -8.529455424269152]]], [[[179.1936241362108, -8.529179828049383], [179.1939009897755, -8.529179828049383], [179.1939009897755, -8.529455424269152], [179.1936241362108, -8.529455424269152], [179.1936241362108, -8.529179828049383]]], [[[179.1941778433402, -8.528904231628207], [179.19445469690487, -8.528904231628207], [179.19445469690487, -8.529179828049383], [179.1941778433402, -8.529179828049383], [179.1941778433402, -8.528904231628207]]], [[[179.19473155046958, -8.52862863500562], [179.19473155046958, -8.528904231628207], [179.19445469690487, -8.528904231628207], [179.19445469690487, -8.52862863500562], [179.19473155046958, -8.52862863500562]]], [[[179.19473155046958, -8.52862863500562], [179.19473155046958, -8.528353038181635], [179.1950084040343, -8.528353038181635], [179.1950084040343, -8.52862863500562], [179.19473155046958, -8.52862863500562]]], [[[179.19583896472838, -8.527801843929497], [179.19583896472838, -8.528077441156261], [179.19556211116367, -8.528077441156261], [179.19556211116367, -8.527801843929497], [179.19583896472838, -8.527801843929497]]], [[[179.19583896472838, -8.527801843929497], [179.19583896472838, -8.527526246501356], [179.1961158182931, -8.527526246501356], [179.1961158182931, -8.527801843929497], [179.19583896472838, -8.527801843929497]]], [[[179.1961158182931, -8.527250648871844], [179.19666952542246, -8.527250648871844], [179.19666952542246, -8.527526246501356], [179.1961158182931, -8.527526246501356], [179.1961158182931, -8.527250648871844]]], [[[179.1933472826461, -8.526148256340168], [179.19307042908142, -8.526148256340168], [179.19307042908142, -8.525321459827298], [179.1933472826461, -8.525321459827298], [179.1933472826461, -8.526148256340168]]], [[[179.1933472826461, -8.524770261145424], [179.1936241362108, -8.524770261145424], [179.1936241362108, -8.525321459827298], [179.1933472826461, -8.525321459827298], [179.1933472826461, -8.524770261145424]]], [[[179.1936241362108, -8.524219061658314], [179.1939009897755, -8.524219061658314], [179.1939009897755, -8.524770261145424], [179.1936241362108, -8.524770261145424], [179.1936241362108, -8.524219061658314]]], [[[179.1941778433402, -8.523392260917921], [179.19445469690487, -8.523392260917921], [179.19445469690487, -8.523667861366006], [179.1941778433402, -8.523667861366006], [179.1941778433402, -8.523392260917921]]], [[[179.19445469690487, -8.522565458366019], [179.19473155046958, -8.522565458366019], [179.19473155046958, -8.523392260917921], [179.19445469690487, -8.523392260917921], [179.19445469690487, -8.522565458366019]]], [[[179.19583896472838, -8.520636245367776], [179.19556211116367, -8.520636245367776], [179.19556211116367, -8.520360642705969], [179.19583896472838, -8.520360642705969], [179.19583896472838, -8.520636245367776]]], [[[179.19583896472838, -8.520085039842952], [179.1961158182931, -8.520085039842952], [179.1961158182931, -8.520360642705969], [179.19583896472838, -8.520360642705969], [179.19583896472838, -8.520085039842952]]], [[[179.1961158182931, -8.519533833513316], [179.19639267185778, -8.519533833513316], [179.19639267185778, -8.520085039842952], [179.1961158182931, -8.520085039842952], [179.1961158182931, -8.519533833513316]]], [[[179.19528525759898, -8.502170422454451], [179.19556211116367, -8.502170422454451], [179.19556211116367, -8.503272884962072], [179.19528525759898, -8.503272884962072], [179.19528525759898, -8.502170422454451]]], [[[179.1950084040343, -8.501619189995859], [179.19528525759898, -8.501619189995859], [179.19528525759898, -8.501894806325547], [179.1950084040343, -8.501894806325547], [179.1950084040343, -8.501619189995859]]], [[[179.19666952542246, -8.50106795673414], [179.19666952542246, -8.501894806325547], [179.19639267185778, -8.501894806325547], [179.19639267185778, -8.50106795673414], [179.19666952542246, -8.50106795673414]]], [[[179.1950084040343, -8.500792339802127], [179.1950084040343, -8.50106795673414], [179.19473155046958, -8.50106795673414], [179.19473155046958, -8.500792339802127], [179.1950084040343, -8.500792339802127]]], [[[179.1961158182931, -8.500241105335821], [179.19639267185778, -8.500241105335821], [179.19639267185778, -8.50106795673414], [179.1961158182931, -8.50106795673414], [179.1961158182931, -8.500241105335821]]], [[[179.19583896472838, -8.499689870066517], [179.1961158182931, -8.499689870066517], [179.1961158182931, -8.499965487801541], [179.19583896472838, -8.499965487801541], [179.19583896472838, -8.499689870066517]]], [[[179.19445469690487, -8.498863015657056], [179.19473155046958, -8.498863015657056], [179.19473155046958, -8.499965487801541], [179.19445469690487, -8.499965487801541], [179.19445469690487, -8.498863015657056]]], [[[179.19445469690487, -8.498863015657056], [179.1941778433402, -8.498863015657056], [179.1941778433402, -8.498587397119126], [179.19445469690487, -8.498587397119126], [179.19445469690487, -8.498863015657056]]], [[[179.19556211116367, -8.498036159441138], [179.19583896472838, -8.498036159441138], [179.19583896472838, -8.498863015657056], [179.19556211116367, -8.498863015657056], [179.19556211116367, -8.498036159441138]]], [[[179.19528525759898, -8.497484920960353], [179.19556211116367, -8.497484920960353], [179.19556211116367, -8.497760540301092], [179.19528525759898, -8.497760540301092], [179.19528525759898, -8.497484920960353]]], [[[179.1939009897755, -8.496382441590606], [179.1941778433402, -8.496382441590606], [179.1941778433402, -8.497760540301092], [179.1939009897755, -8.497760540301092], [179.1939009897755, -8.496382441590606]]], [[[179.1939009897755, -8.495555579956338], [179.1939009897755, -8.496382441590606], [179.1936241362108, -8.496382441590606], [179.1936241362108, -8.495555579956338], [179.1939009897755, -8.495555579956338]]], [[[179.1950084040343, -8.494728716516288], [179.1950084040343, -8.49665806173405], [179.19528525759898, -8.49665806173405], [179.19528525759898, -8.49720930141893], [179.1950084040343, -8.49720930141893], [179.1950084040343, -8.496933681676827], [179.19473155046958, -8.496933681676827], [179.19473155046958, -8.494728716516288], [179.1950084040343, -8.494728716516288]]], [[[179.1933472826461, -8.495279959010288], [179.1936241362108, -8.495279959010288], [179.1936241362108, -8.495555579956338], [179.1933472826461, -8.495555579956338], [179.1933472826461, -8.495279959010288]]], [[[179.19445469690487, -8.493626229120867], [179.19473155046958, -8.493626229120867], [179.19473155046958, -8.494728716516288], [179.19445469690487, -8.494728716516288], [179.19445469690487, -8.493626229120867]]], [[[179.1941778433402, -8.492799361468004], [179.19445469690487, -8.492799361468004], [179.19445469690487, -8.493350606770502], [179.1941778433402, -8.493350606770502], [179.1941778433402, -8.492799361468004]]], [[[179.1927935755167, -8.492248115363191], [179.19307042908142, -8.492248115363191], [179.19307042908142, -8.493074984219547], [179.1927935755167, -8.493074984219547], [179.1927935755167, -8.492248115363191]]], [[[179.1939009897755, -8.491421244701742], [179.1941778433402, -8.491421244701742], [179.1941778433402, -8.492523738515883], [179.1939009897755, -8.492523738515883], [179.1939009897755, -8.491421244701742]]], [[[179.1936241362108, -8.4900431229218], [179.1939009897755, -8.4900431229218], [179.1939009897755, -8.491145620746822], [179.1936241362108, -8.491145620746822], [179.1936241362108, -8.4900431229218]]], [[[179.19196301482262, -8.48866499612897], [179.19223986838733, -8.48866499612897], [179.19223986838733, -8.489491872806171], [179.19196301482262, -8.489491872806171], [179.19196301482262, -8.48866499612897]]], [[[179.19196301482262, -8.487286864324036], [179.19196301482262, -8.487838117647412], [179.1916861612579, -8.487838117647412], [179.1916861612579, -8.487286864324036], [179.19196301482262, -8.487286864324036]]], [[[179.1936241362108, -8.485357471378302], [179.1936241362108, -8.489767497964243], [179.1933472826461, -8.489767497964243], [179.1933472826461, -8.485357471378302], [179.1936241362108, -8.485357471378302]]], [[[179.19140930769322, -8.479017968284472], [179.1916861612579, -8.479017968284472], [179.1916861612579, -8.4798448660019], [179.19140930769322, -8.4798448660019], [179.19140930769322, -8.479017968284472]]], [[[179.19307042908142, -8.479017968284472], [179.1933472826461, -8.479017968284472], [179.1933472826461, -8.4798448660019], [179.19307042908142, -8.4798448660019], [179.19307042908142, -8.479017968284472]]], [[[179.1927935755167, -8.477364167442685], [179.19307042908142, -8.477364167442685], [179.19307042908142, -8.477639801416919], [179.1927935755167, -8.477639801416919], [179.1927935755167, -8.477364167442685]]], [[[179.192516721952, -8.476261629543568], [179.1927935755167, -8.476261629543568], [179.1927935755167, -8.476537264318663], [179.192516721952, -8.476537264318663], [179.192516721952, -8.476261629543568]]], [[[179.19223986838733, -8.474883452665217], [179.192516721952, -8.474883452665217], [179.192516721952, -8.47515908844125], [179.19223986838733, -8.47515908844125], [179.19223986838733, -8.474883452665217]]], [[[179.19196301482262, -8.473780907559469], [179.19223986838733, -8.473780907559469], [179.19223986838733, -8.474607816689018], [179.19196301482262, -8.474607816689018], [179.19196301482262, -8.473780907559469]]], [[[179.1916861612579, -8.473229633805705], [179.19196301482262, -8.473229633805705], [179.19196301482262, -8.473780907559469], [179.1916861612579, -8.473780907559469], [179.1916861612579, -8.473229633805705]]], [[[179.1916861612579, -8.472953996628629], [179.1916861612579, -8.473229633805705], [179.19140930769322, -8.473229633805705], [179.19140930769322, -8.472953996628629], [179.1916861612579, -8.472953996628629]]], [[[179.19694637898718, -8.526975051040957], [179.19694637898718, -8.527250648871844], [179.19666952542246, -8.527250648871844], [179.19666952542246, -8.526975051040957], [179.19694637898718, -8.526975051040957]]], [[[179.19777693968126, -8.526423854775114], [179.19777693968126, -8.526699453008714], [179.19750008611655, -8.526699453008714], [179.19750008611655, -8.526423854775114], [179.19777693968126, -8.526423854775114]]], [[[179.19777693968126, -8.526423854775114], [179.19777693968126, -8.526148256340168], [179.19805379324598, -8.526148256340168], [179.19805379324598, -8.526423854775114], [179.19777693968126, -8.526423854775114]]], [[[179.19805379324598, -8.525872657703879], [179.19833064681066, -8.525872657703879], [179.19833064681066, -8.526148256340168], [179.19805379324598, -8.526148256340168], [179.19805379324598, -8.525872657703879]]], [[[179.19916120750474, -8.525872657703879], [179.19860750037535, -8.525872657703879], [179.19860750037535, -8.525321459827298], [179.19916120750474, -8.525321459827298], [179.19916120750474, -8.525872657703879]]], [[[179.19916120750474, -8.525045860587023], [179.19943806106943, -8.525045860587023], [179.19943806106943, -8.525321459827298], [179.19916120750474, -8.525321459827298], [179.19916120750474, -8.525045860587023]]], [[[179.19971491463414, -8.524770261145424], [179.19971491463414, -8.525045860587023], [179.19943806106943, -8.525045860587023], [179.19943806106943, -8.524770261145424], [179.19971491463414, -8.524770261145424]]], [[[179.19971491463414, -8.524770261145424], [179.19971491463414, -8.524494661502521], [179.19999176819886, -8.524494661502521], [179.19999176819886, -8.524770261145424], [179.19971491463414, -8.524770261145424]]], [[[179.20026862176354, -8.524219061658314], [179.20054547532823, -8.524219061658314], [179.20054547532823, -8.524494661502521], [179.20026862176354, -8.524494661502521], [179.20026862176354, -8.524219061658314]]], [[[179.20165288958702, -8.523667861366006], [179.2013760360223, -8.523667861366006], [179.2013760360223, -8.523392260917921], [179.20165288958702, -8.523392260917921], [179.20165288958702, -8.523667861366006]]], [[[179.20165288958702, -8.523116660268558], [179.20192974315174, -8.523116660268558], [179.20192974315174, -8.523392260917921], [179.20165288958702, -8.523392260917921], [179.20165288958702, -8.523116660268558]]], [[[179.20220659671642, -8.522841059417924], [179.20220659671642, -8.523116660268558], [179.20192974315174, -8.523116660268558], [179.20192974315174, -8.522841059417924], [179.20220659671642, -8.522841059417924]]], [[[179.20220659671642, -8.522841059417924], [179.20220659671642, -8.522565458366019], [179.2024834502811, -8.522565458366019], [179.2024834502811, -8.522841059417924], [179.20220659671642, -8.522841059417924]]], [[[179.20276030384582, -8.52201425565844], [179.20276030384582, -8.522565458366019], [179.2024834502811, -8.522565458366019], [179.2024834502811, -8.52201425565844], [179.20276030384582, -8.52201425565844]]], [[[179.20276030384582, -8.52201425565844], [179.20276030384582, -8.521738654002778], [179.2030371574105, -8.521738654002778], [179.2030371574105, -8.52201425565844], [179.20276030384582, -8.52201425565844]]], [[[179.19971491463414, -8.521738654002778], [179.19943806106943, -8.521738654002778], [179.19943806106943, -8.52201425565844], [179.19916120750474, -8.52201425565844], [179.19916120750474, -8.521463052145872], [179.19971491463414, -8.521463052145872], [179.19971491463414, -8.521738654002778]]], [[[179.2030371574105, -8.521187450087734], [179.2033140109752, -8.521187450087734], [179.2033140109752, -8.521738654002778], [179.2030371574105, -8.521738654002778], [179.2030371574105, -8.521187450087734]]], [[[179.2033140109752, -8.519258230046708], [179.2035908645399, -8.519258230046708], [179.2035908645399, -8.521187450087734], [179.2033140109752, -8.521187450087734], [179.2033140109752, -8.519258230046708]]], [[[179.2033140109752, -8.518431418439802], [179.2033140109752, -8.519258230046708], [179.2030371574105, -8.519258230046708], [179.2030371574105, -8.518431418439802], [179.2033140109752, -8.518431418439802]]], [[[179.19722323255186, -8.518431418439802], [179.19722323255186, -8.518707022509947], [179.19694637898718, -8.518707022509947], [179.19694637898718, -8.518431418439802], [179.19722323255186, -8.518431418439802]]], [[[179.20276030384582, -8.517329000147651], [179.2030371574105, -8.517329000147651], [179.2030371574105, -8.518431418439802], [179.20276030384582, -8.518431418439802], [179.20276030384582, -8.517329000147651]]], [[[179.19750008611655, -8.517604605022413], [179.19777693968126, -8.517604605022413], [179.19777693968126, -8.517880209696033], [179.19750008611655, -8.517880209696033], [179.19750008611655, -8.517604605022413]]], [[[179.2024834502811, -8.516226578637248], [179.20276030384582, -8.516226578637248], [179.20276030384582, -8.516502184316534], [179.2024834502811, -8.516502184316534], [179.2024834502811, -8.516226578637248]]], [[[179.19833064681066, -8.515950972756844], [179.19860750037535, -8.515950972756844], [179.19860750037535, -8.516226578637248], [179.19833064681066, -8.516226578637248], [179.19833064681066, -8.515950972756844]]], [[[179.20220659671642, -8.515675366675332], [179.2024834502811, -8.515675366675332], [179.2024834502811, -8.516226578637248], [179.20220659671642, -8.516226578637248], [179.20220659671642, -8.515675366675332]]], [[[179.19860750037535, -8.515124153909005], [179.19888435394006, -8.515124153909005], [179.19888435394006, -8.515675366675332], [179.19860750037535, -8.515675366675332], [179.19860750037535, -8.515124153909005]]], [[[179.20192974315174, -8.514572940338322], [179.20220659671642, -8.514572940338322], [179.20220659671642, -8.515675366675332], [179.20192974315174, -8.515675366675332], [179.20192974315174, -8.514572940338322]]], [[[179.20192974315174, -8.51347051078408], [179.20192974315174, -8.51429733325136], [179.20165288958702, -8.51429733325136], [179.20165288958702, -8.51347051078408], [179.20192974315174, -8.51347051078408]]], [[[179.2013760360223, -8.51347051078408], [179.2013760360223, -8.51291929480062], [179.20165288958702, -8.51291929480062], [179.20165288958702, -8.51347051078408], [179.2013760360223, -8.51347051078408]]], [[[179.20109918245763, -8.512368078013], [179.2013760360223, -8.512368078013], [179.2013760360223, -8.51291929480062], [179.20109918245763, -8.51291929480062], [179.20109918245763, -8.512368078013]]], [[[179.19860750037535, -8.512092469317652], [179.19888435394006, -8.512092469317652], [179.19888435394006, -8.51291929480062], [179.19860750037535, -8.51291929480062], [179.19860750037535, -8.512092469317652]]], [[[179.20082232889294, -8.512092469317652], [179.20109918245763, -8.512092469317652], [179.20109918245763, -8.512368078013], [179.20082232889294, -8.512368078013], [179.20082232889294, -8.512092469317652]]], [[[179.20054547532823, -8.511265642025501], [179.20082232889294, -8.511265642025501], [179.20082232889294, -8.511816860421279], [179.20054547532823, -8.511816860421279], [179.20054547532823, -8.511265642025501]]], [[[179.19999176819886, -8.510163202821975], [179.20026862176354, -8.510163202821975], [179.20026862176354, -8.510714422825716], [179.19999176819886, -8.510714422825716], [179.19999176819886, -8.510163202821975]]], [[[179.19999176819886, -8.510163202821975], [179.19971491463414, -8.510163202821975], [179.19971491463414, -8.50933637130906], [179.19999176819886, -8.50933637130906], [179.19999176819886, -8.510163202821975]]], [[[179.19777693968126, -8.50906076040283], [179.19805379324598, -8.50906076040283], [179.19805379324598, -8.50988759251864], [179.19777693968126, -8.50988759251864], [179.19777693968126, -8.50906076040283]]], [[[179.19971491463414, -8.508785149295653], [179.19971491463414, -8.50906076040283], [179.19943806106943, -8.50906076040283], [179.19943806106943, -8.508785149295653], [179.19971491463414, -8.508785149295653]]], [[[179.19777693968126, -8.508509537987527], [179.19777693968126, -8.50906076040283], [179.19750008611655, -8.50906076040283], [179.19750008611655, -8.508509537987527], [179.19777693968126, -8.508509537987527]]], [[[179.19916120750474, -8.508509537987527], [179.19943806106943, -8.508509537987527], [179.19943806106943, -8.508785149295653], [179.19916120750474, -8.508785149295653], [179.19916120750474, -8.508509537987527]]], [[[179.19888435394006, -8.507407090745707], [179.19916120750474, -8.507407090745707], [179.19916120750474, -8.508233926478463], [179.19888435394006, -8.508233926478463], [179.19888435394006, -8.507407090745707]]], [[[179.19694637898718, -8.506580253204737], [179.19722323255186, -8.506580253204737], [179.19722323255186, -8.507682702857549], [179.19694637898718, -8.507682702857549], [179.19694637898718, -8.506580253204737]]], [[[179.19694637898718, -8.506304640289281], [179.19694637898718, -8.506580253204737], [179.19666952542246, -8.506580253204737], [179.19666952542246, -8.506304640289281], [179.19694637898718, -8.506304640289281]]], [[[179.19833064681066, -8.505477800337616], [179.19833064681066, -8.505753413855716], [179.19805379324598, -8.505753413855716], [179.19805379324598, -8.505477800337616], [179.19833064681066, -8.505477800337616]]], [[[179.19777693968126, -8.504926572698817], [179.19805379324598, -8.504926572698817], [179.19805379324598, -8.505202186618648], [179.19777693968126, -8.505202186618648], [179.19777693968126, -8.504926572698817]]], [[[179.19750008611655, -8.504375344256593], [179.19777693968126, -8.504375344256593], [179.19777693968126, -8.50465095857813], [179.19750008611655, -8.50465095857813], [179.19750008611655, -8.504375344256593]]], [[[179.19722323255186, -8.503272884962072], [179.19750008611655, -8.503272884962072], [179.19750008611655, -8.504099729734211], [179.19722323255186, -8.504099729734211], [179.19722323255186, -8.503272884962072]]], [[[179.19722323255186, -8.502446038382562], [179.19722323255186, -8.503272884962072], [179.19694637898718, -8.503272884962072], [179.19694637898718, -8.502446038382562], [179.19722323255186, -8.502446038382562]]], [[[179.19694637898718, -8.501894806325547], [179.19694637898718, -8.502170422454451], [179.19666952542246, -8.502170422454451], [179.19666952542246, -8.501894806325547], [179.19694637898718, -8.501894806325547]]]]}}], "meta": {"label": "+1.5m", "rise_m": 1.5, "simplify_tolerance_m": 5.0}}